"locator_domain","page_url","location_name","street_address","city","state","zip","country_code","store_number","phone","location_type","latitude","longitude","hours_of_operation"
"https://www.searshometownstores.com/","https://www.searshometownstores.com/home/de/middletown/3463","MIDDLETOWN -AUTH HOMETOWN","600 NORTH BROAD SUITE 9","MIDDLETOWN","DE","19709","US","0003463","(302) 378-8020","<MISSING>","39.456821","-75.719376","mon 9 AM - 7 PM tue 9 AM - 7 PM wed 9 AM - 7 PM thu 9 AM - 7 PM fri 9 AM - 7 PM sat 9 AM - 6 PM sun 11 AM - 4 PM "
"https://www.searshometownstores.com/","https://www.searshometownstores.com/home/md/chestertown/3123","CHESTERTOWN - AUTH HOMETOWN","19 WASHINGTON SQ","CHESTERTOWN","MD","21620","US","0003123","(410) 778-2335","<MISSING>","39.211292","-76.066238","mon 9 AM - 7 PM tue 9 AM - 7 PM wed 9 AM - 7 PM thu 9 AM - 7 PM fri 9 AM - 7 PM sat 8.30 AM - 6 PM sun 10 AM - 5 PM "
"https://www.searshometownstores.com/","https://www.searshometownstores.com/home/de/seaford/2157","SEAFORD - AUTH HOMETOWN","23392 SUSSEX HIGHWAY","SEAFORD","DE","19973","US","0002157","(302) 628-6966","<MISSING>","38.657222","-75.59514","mon 9 AM - 7 PM tue 9 AM - 7 PM wed 9 AM - 7 PM thu 9 AM - 7 PM fri 9 AM - 7 PM sat 9 AM - 6 PM sun 11 AM - 4 PM "
"https://www.searshometownstores.com/","https://www.searshometownstores.com/home/pa/camp hill/1711","SEARS APPLIANCE & MATTRESS","3740 CAPITAL CITY MALL DRIVE","CAMP HILL","PA","17011","US","0001711","(717) 413-3051","<MISSING>","40.235233","-76.934606","mon 10 AM - 7 PM tue 10 AM - 7 PM wed 10 AM - 7 PM thu 10 AM - 7 PM fri 10 AM - 7 PM sat 9 AM - 6 PM sun 10 AM - 6 PM "
"https://www.searshometownstores.com/","https://www.searshometownstores.com/home/ks/hays/3267","HAYS - AUTH HOMETOWN","2706 VINE ST","HAYS","KS","67601","US","0003267","(785) 625-5641","<MISSING>","38.885689","-99.317696","mon 9 AM - 7 PM tue 9 AM - 7 PM wed 9 AM - 7 PM thu 9 AM - 7 PM fri 9 AM - 7 PM sat 9 AM - 7 PM sun 11 AM - 5 PM "
"https://www.searshometownstores.com/","https://www.searshometownstores.com/home/ks/great bend/3330","GREAT BEND - AUTH HOMETOWN","2515 10TH ST","GREAT BEND","KS","67530","US","0003330","(620) 793-7801","<MISSING>","38.361446","-98.772263","mon 9 AM - 6 PM tue 9 AM - 6 PM wed 9 AM - 6 PM thu 9 AM - 6 PM fri 9 AM - 6 PM sat 9 AM - 6 PM sun 11 AM - 4 PM "
"https://www.searshometownstores.com/","https://www.searshometownstores.com/home/ks/dodge city/3257","DODGE CITY - AUTH HOMETOWN","2601 CENTRAL AVE","DODGE CITY","KS","67801","US","0003257","(620) 227-2141","<MISSING>","37.778915","-100.0158","mon 10 AM - 9 PM tue 10 AM - 9 PM wed 10 AM - 9 PM thu 10 AM - 9 PM fri 10 AM - 9 PM sat 10 AM - 9 PM sun 12 AM - 6 PM "
"https://www.searshometownstores.com/","https://www.searshometownstores.com/home/ks/colby/3781","COLBY - AUTH HOMETOWN","1937 S RANGE AVE STE 1","COLBY","KS","67701","US","0003781","(785) 460-7488","<MISSING>","39.370705","-101.05449","mon 8.30 AM - 6 PM tue 8.30 AM - 6 PM wed 8.30 AM - 6 PM thu 9 AM - 6 PM fri 8.30 AM - 6 PM sat 9 AM - 6 PM sun 11 AM - 4 PM "
"https://www.searshometownstores.com/","https://www.searshometownstores.com/home/sc/greenwood/3325","GREENWOOD - AUTH HOMETOWN","1344 SC 72 BUSINESS","GREENWOOD","SC","29649","US","0003325","(864) 223-4266","<MISSING>","34.243119","-82.137371","mon 9:30 AM - 7 PM tue 9:30 AM - 7 PM wed 9:30 AM - 7 PM thu 9:30 AM - 7 PM fri 9:30 AM - 7 PM sat 9 AM - 6 PM sun 12 AM - 5 PM "
"https://www.searshometownstores.com/","https://www.searshometownstores.com/home/nc/spruce pine/3958","SPRUCE PINE - AUTH HOMETOWN","11947 S HWY 226","SPRUCE PINE","NC","28777","US","0003958","(828) 765-5700","<MISSING>","35.892267","-82.067421","mon 8.30 AM - 6 PM tue 8.30 AM - 6 PM wed 8.30 AM - 6 PM thu 8.30 AM - 6 PM fri 8.30 AM - 6 PM sat 8.30 AM - 6 PM sun 11 AM - 4 PM "
"https://www.searshometownstores.com/","https://www.searshometownstores.com/home/tx/athens/2014","220 CRESTWAY SUITE 100","BUDDYS IN ATHENS","ATHENS","TX","75751","US","0002014","(430) 502-6161","<MISSING>","35.5732","-80.8894","mon 9 AM - 7 PM tue 9 AM - 7 PM wed 9 AM - 7 PM thu 9 AM - 7 PM fri 9 AM - 7 PM sat 9 AM - 6 PM sun 12 AM - 5 PM "
"https://www.searshometownstores.com/","https://www.searshometownstores.com/home/il/pekin/3258","PEKIN - HTS SERVICES","3247 COURT STREET SUITE A","PEKIN","IL","61554","US","0003258","(309) 347-0034","<MISSING>","33.984321","-81.260817","mon 9 AM - 6 PM tue 9 AM - 6 PM wed 9 AM - 6 PM thu 9 AM - 6 PM fri 9 AM - 6 PM sat 9 AM - 6 PM sun 12 AM - 6 PM "
"https://www.searshometownstores.com/","https://www.searshometownstores.com/home/nd/minot/7136","MINOT - AUTH HOMETOWN","1425 24TH AVE SW","MINOT","ND","58701","US","0007136","(701) 707-0530","<MISSING>","48.207152","-101.315689","mon 9 AM - 7 PM tue 9 AM - 7 PM wed 9 AM - 7 PM thu 9 AM - 7 PM fri 9 AM - 7 PM sat 9 AM - 7 PM sun 11 AM - 4 PM "
"https://www.searshometownstores.com/","https://www.searshometownstores.com/home/ga/macon/6984","MACON - AUTH HOMETOWN","4551 BILLY WILLIAMSON DRIVE","MACON","GA","31206","US","0006984","(478) 254-4639","<MISSING>","32.822094","-83.715463","mon 9 AM - 7 PM tue 9 AM - 7 PM wed 9 AM - 7 PM thu 9 AM - 7 PM fri 9 AM - 7 PM sat 9 AM - 6 PM sun 11 AM - 5 PM "
"https://www.searshometownstores.com/","https://www.searshometownstores.com/home/ga/sandersville/3798","SANDERSVILLE-AUTH HOMETOWN","306 RIDDLEVILLE RD","SANDERSVILLE","GA","31082","US","0003798","(478) 552-1800","<MISSING>","32.971401","-82.806847","mon 9 AM - 6 PM tue 9 AM - 6 PM wed 9 AM - 6 PM thu 9 AM - 6 PM fri 9 AM - 6 PM sat 9 AM - 6 PM sun 12 AM - 5 PM "
"https://www.searshometownstores.com/","https://www.searshometownstores.com/home/ga/dublin/3395","DUBLIN - AUTH HOMETOWN","104 HILLCREST PKWY","DUBLIN","GA","31021","US","0003395","(478) 272-3600","<MISSING>","32.551128","-82.913525","mon 9 AM - 6 PM tue 9 AM - 6 PM wed 9 AM - 6 PM thu 9 AM - 6 PM fri 9 AM - 6 PM sat 9 AM - 6 PM sun 12 AM - 5 PM "
"https://www.searshometownstores.com/","https://www.searshometownstores.com/home/ga/fitzgerald/3255","FITZGERALD - AUTH HOMETOWN","215 S GRANT ST","FITZGERALD","GA","31750","US","0003255","(229) 423-2081","<MISSING>","31.713433","-83.252924","mon 8.30 AM - 6 PM tue 8.30 AM - 6 PM wed 8.30 AM - 6 PM thu 8.30 AM - 6 PM fri 8.30 AM - 6 PM sat 9 AM - 6 PM sun 9:30 AM - 5:30 PM "
"https://www.searshometownstores.com/","https://www.searshometownstores.com/home/ga/carrollton/3515","CARROLLTON - AUTH HOMETOWN","1202 S PARK ST","CARROLLTON","GA","30117","US","0003515","(770) 832-9611","<MISSING>","33.556021","-85.072051","mon 9 AM - 6 PM tue 9 AM - 6 PM wed 9 AM - 6 PM thu 9 AM - 6 PM fri 9 AM - 6 PM sat 9 AM - 6 PM sun 11 AM - 4 PM "
"https://www.searshometownstores.com/","https://www.searshometownstores.com/home/va/kilmarnock/5695","KILMARNOCK - AUTH HOMETOWN","412 NORTH MAIN STREET","KILMARNOCK","VA","22482","US","0005695","(804) 435-0920","<MISSING>","37.720959","-76.385644","mon 9:30 AM - 7 PM tue 9:30 AM - 7 PM wed 9:30 AM - 7 PM thu 9:30 AM - 7 PM fri 9:30 AM - 7 PM sat 9 AM - 7 PM sun 11 AM - 4 PM "
"https://www.searshometownstores.com/","https://www.searshometownstores.com/home/oh/gallipolis/3462","GALLIPOLIS - AUTH HOMETOWN","2200 EASTERN AVE","GALLIPOLIS","OH","45631","US","0003462","(740) 446-1546","<MISSING>","38.823612","-82.172523","mon 9 AM - 6 PM tue 9 AM - 6 PM wed 9 AM - 6 PM thu 9 AM - 6 PM fri 9 AM - 6 PM sat 9 AM - 6 PM sun 11 AM - 4 PM "
"https://www.searshometownstores.com/","https://www.searshometownstores.com/home/wv/ronceverte/3023","RONCEVERTE-AUTH HOMETOWN","8484 SENECA TRAIL S","RONCEVERTE","WV","24970","US","0003023","(304) 645-6662","<MISSING>","37.770157","-80.466576","mon 9 AM - 7 PM tue 9 AM - 7 PM wed 9 AM - 7 PM thu 9 AM - 7 PM fri 9 AM - 7 PM sat 9 AM - 6 PM sun 11 AM - 4 PM "
"https://www.searshometownstores.com/","https://www.searshometownstores.com/home/wv/elkins/3114","ELKINS -  AUTH HOMETOWN","1611 HARRISON AVE","ELKINS","WV","26241","US","0003114","(304) 636-0893","<MISSING>","38.931355","-79.865273","mon 9 AM - 7 PM tue 9 AM - 7 PM wed 9 AM - 7 PM thu 9 AM - 7 PM fri 9 AM - 7 PM sat 9 AM - 7 PM sun 12 AM - 5 PM "
"https://www.searshometownstores.com/","https://www.searshometownstores.com/home/ky/s williamson/3086","S WILLIAMSON -AUTH HOMETOWN","275 SOUTHSIDE MALL RD STE 10B","S WILLIAMSON","KY","41503","US","0003086","(606) 237-1022","<MISSING>","37.653179","-82.273544","mon 10 AM - 7 PM tue 10 AM - 7 PM wed 10 AM - 7 PM thu 10 AM - 7 PM fri 10 AM - 7 PM sat 10 AM - 7 PM sun 12 AM - 6 PM "
"https://www.searshometownstores.com/","https://www.searshometownstores.com/home/oh/logan/2172","LOGAN - AUTH HOMETOWN","150 HOCKING MALL","LOGAN","OH","43138","US","0002172","(740) 385-8881","<MISSING>","39.547949","-82.433091","mon 9 AM - 7 PM tue 9 AM - 7 PM wed 9 AM - 7 PM thu 9 AM - 7 PM fri 9 AM - 7 PM sat 9 AM - 6 PM sun 12 AM - 5 PM "
"https://www.searshometownstores.com/","https://www.searshometownstores.com/home/tx/canton/3639","CANTON - AUTH HOMETOWN","1190 S TRADE DAYS BLVD","CANTON","TX","75103","US","0003639","(903) 567-3500","<MISSING>","32.545574","-95.845621","mon 9 AM - 6 PM tue 9 AM - 6 PM wed 9 AM - 6 PM thu 9 AM - 6 PM fri 9 AM - 6 PM sat 9 AM - 6 PM sun 12 AM - 5 PM "
"https://www.searshometownstores.com/","https://www.searshometownstores.com/home/tx/corsicana/3378","CORSICANA - AUTH HOMETOWN","836 W 7TH AVE","CORSICANA","TX","75110","US","0003378","(903) 872-0887","<MISSING>","32.087532","-96.471001","mon 9 AM - 6 PM tue 9 AM - 6 PM wed 9 AM - 6 PM thu 9 AM - 6 PM fri 9 AM - 6 PM sat 9 AM - 6 PM sun 11 AM - 4 PM "
"https://www.searshometownstores.com/","https://www.searshometownstores.com/home/tx/decatur/5551","DECATUR-BUDDY'S","1012 W BUSINESS 380","DECATUR","TX","76234","US","0005551","() -","<MISSING>","33.232056","-97.598407","mon 8 AM - 9 PM tue 8 AM - 9 PM wed 8 AM - 9 PM thu 8 AM - 9 PM fri 8 AM - 9 PM sat 8 AM - 9 PM sun 9 AM - 6 PM "
"https://www.searshometownstores.com/","https://www.searshometownstores.com/home/tx/mineola/3988","MINEOLA - AUTH HOMETOWN","332 W FM 564","MINEOLA","TX","75773","US","0003988","(903) 569-8099","<MISSING>","32.683149","-95.46735","mon 9 AM - 6 PM tue 9 AM - 6 PM wed 9 AM - 6 PM thu 9 AM - 6 PM fri 9 AM - 6 PM sat 9 AM - 6 PM sun 11 AM - 4 PM "
"https://www.searshometownstores.com/","https://www.searshometownstores.com/home/tx/mexia/3948","MEXIA - AUTH HOMETOWN","909 E MILAM","MEXIA","TX","76667","US","0003948","(254) 562-9555","<MISSING>","31.684418","-96.473598","mon 9 AM - 6 PM tue 9 AM - 6 PM wed 9 AM - 6 PM thu 9 AM - 6 PM fri 9 AM - 6 PM sat 9 AM - 6 PM sun 11 AM - 4 PM "
"https://www.searshometownstores.com/","https://www.searshometownstores.com/home/tx/paris/7684","PARIS o AUTH HOMETOWN","3020 CLARKSVILLE ST","PARIS","TX","75460","US","0007684","(430) 562-9770","<MISSING>","33.649676","-95.521893","mon 9 AM - 7 PM tue 9 AM - 7 PM wed 9 AM - 7 PM thu 9 AM - 7 PM fri 9 AM - 7 PM sat 9 AM - 7 PM sun 11 AM - 4 PM "
"https://www.searshometownstores.com/","https://www.searshometownstores.com/home/nm/hobbs/3319","HOBBS - AUTH HOMETOWN","405 E NAVAJO DR","HOBBS","NM","88240","US","0003319","(575) 492-0445","<MISSING>","32.740124","-103.13161","mon 10 AM - 7 PM tue 10 AM - 7 PM wed 10 AM - 7 PM thu 10 AM - 7 PM fri 10 AM - 7 PM sat 9 AM - 6 PM sun 11 AM - 4 PM "
"https://www.searshometownstores.com/","https://www.searshometownstores.com/home/tx/plainview/3538","PLAINVIEW - AUTH HOMETOWN","1507 W 5TH ST","PLAINVIEW","TX","79072","US","0003538","(806) 293-2244","<MISSING>","34.184086","-101.72021","mon 9 AM - 6 PM tue 9 AM - 6 PM wed 9 AM - 6 PM thu 9 AM - 6 PM fri 9 AM - 6 PM sat 9 AM - 6 PM sun 11 AM - 4 PM "
"https://www.searshometownstores.com/","https://www.searshometownstores.com/home/ky/pikeville/3146","PIKEVILLE - AUTH HOMETOWN","170 TOWN MOUNTAIN RD STE 1","PIKEVILLE","KY","41501","US","0003146","(606) 432-2571","<MISSING>","37.484338","-82.511822","mon 9 AM - 6 PM tue 9 AM - 6 PM wed 9 AM - 6 PM thu 9 AM - 6 PM fri 9 AM - 6 PM sat 9 AM - 6 PM sun 12 AM - 5 PM "
"https://www.searshometownstores.com/","https://www.searshometownstores.com/home/ky/middlesboro/4139","MIDDLESBORO - AUTH HOMETOWN","2801 US HIGHWAY 25E STE 400","MIDDLESBORO","KY","40965","US","0004139","(606) 248-3399","<MISSING>","36.605605","-83.700455","mon 9 AM - 6 PM tue 9 AM - 6 PM wed 9 AM - 6 PM thu 9 AM - 6 PM fri 9 AM - 6 PM sat 9 AM - 6 PM sun 12 AM - 6 PM "
"https://www.searshometownstores.com/","https://www.searshometownstores.com/home/tx/atlanta/3956","ATLANTA - AUTH HOMETOWN","301 E MAIN ST","ATLANTA","TX","75551","US","0003956","(903) 796-2845","<MISSING>","33.113285","-94.162872","mon 9 AM - 7 PM tue 9 AM - 7 PM wed 9 AM - 7 PM thu 9 AM - 7 PM fri 9 AM - 7 PM sat 9 AM - 6 PM sun 12 AM - 5 PM "
"https://www.searshometownstores.com/","https://www.searshometownstores.com/home/tx/nacogdoches/3418","NACOGDOCHES - AUTH HOMETOWN","3801 NORTH ST","NACOGDOCHES","TX","75965","US","0003418","(936) 569-8262","<MISSING>","31.639338","-94.653412","mon 9 AM - 6 PM tue 9 AM - 6 PM wed 9 AM - 6 PM thu 9 AM - 6 PM fri 9 AM - 6 PM sat 9 AM - 6 PM sun 12 AM - 5 PM "
"https://www.searshometownstores.com/","https://www.searshometownstores.com/home/ar/nashville/5270","NASHVILLE - AUTH HOMETOWN","1401 S. FOURTH ST.","NASHVILLE","AR","71852","US","0005270","(870) 845-3200","<MISSING>","33.930437","-93.850092","mon 8.30 AM - 6 PM tue 8.30 AM - 6 PM wed 8.30 AM - 6 PM thu 8.30 AM - 6 PM fri 8.30 AM - 6 PM sat 8.30 AM - 6 PM sun 11 AM - 4 PM "
"https://www.searshometownstores.com/","https://www.searshometownstores.com/home/wi/superior/9490","MARINER MALL","69 N 28TH STREET STE 400","SUPERIOR","WI","54880","US","0009490","(715) 392-4400","<MISSING>","46.706337","-92.073962","mon 9 AM - 6 PM tue 9 AM - 6 PM wed 9 AM - 6 PM thu 9 AM - 6 PM fri 9 AM - 6 PM sat 9 AM - 6 PM sun 10 AM - 3 PM "
"https://www.searshometownstores.com/","https://www.searshometownstores.com/home/wi/spooner/3729","SPOONER - AUTH HOMETOWN","316 SERVICE RD","SPOONER","WI","54801","US","0003729","(715) 635-4887","<MISSING>","45.822235","-91.884979","mon 8 AM - 6 PM tue 8 AM - 6 PM wed 8 AM - 6 PM thu 8 AM - 6 PM fri 8 AM - 6 PM sat 8 AM - 5 PM sun 10 AM - 3 PM "
"https://www.searshometownstores.com/","https://www.searshometownstores.com/home/wi/ashland/3891","ASHLAND - AUTH HOMETOWN","811 3RD STREET WEST","ASHLAND","WI","54806","US","0003891","(715) 685-2736","<MISSING>","46.602272","-90.862167","mon 9 AM - 6 PM tue 9 AM - 6 PM wed 9 AM - 6 PM thu 9 AM - 6 PM fri 9 AM - 6 PM sat 9 AM - 6 PM sun 11 AM - 4 PM "
"https://www.searshometownstores.com/","https://www.searshometownstores.com/home/mn/brainerd/3441","BRAINERD - AUTH HOMETOWN","302 5TH AVE NE UNIT 3","BRAINERD","MN","56401","US","0003441","(218) 824-9313","<MISSING>","46.383595","-94.258148","mon 9 AM - 5 PM tue 9 AM - 5 PM wed 9 AM - 5 PM thu 9 AM - 5 PM fri 9 AM - 5 PM sat 9 AM - 5 PM sun 12 AM - 12 PM "
"https://www.searshometownstores.com/","https://www.searshometownstores.com/home/mn/cambridge/3453","CAMBRIDGE - AUTH HOMETOWN","1950 2ND AVENUE SE","CAMBRIDGE","MN","55008","US","0003453","(763) 689-4334","<MISSING>","45.57115","-93.208739","mon 9 AM - 7 PM tue 9 AM - 7 PM wed 9 AM - 7 PM thu 9 AM - 7 PM fri 9 AM - 7 PM sat 9 AM - 6 PM sun 11 AM - 4 PM "
"https://www.searshometownstores.com/","https://www.searshometownstores.com/home/wi/rice lake/3731","RICE LAKE - AUTH HOMETOWN","2800 COLLEGE DR","RICE LAKE","WI","54868","US","0003731","(715) 234-2113","<MISSING>","45.481274","-91.743553","mon 9 AM - 6 PM tue 9 AM - 6 PM wed 9 AM - 6 PM thu 9 AM - 6 PM fri 9 AM - 6 PM sat 9 AM - 6 PM sun 11 AM - 4 PM "
"https://www.searshometownstores.com/","https://www.searshometownstores.com/home/il/harrisburg/3681","HARRISBURG - AUTH HOMETOWN","601 N COMMERCIAL ST STE 10","HARRISBURG","IL","62946","US","0003681","(618) 253-4007","<MISSING>","37.743473","-88.526398","mon 9 AM - 7 PM tue 9 AM - 7 PM wed 9 AM - 7 PM thu 9 AM - 7 PM fri 9 AM - 7 PM sat 9 AM - 7 PM sun 9 AM - 4 PM "
"https://www.searshometownstores.com/","https://www.searshometownstores.com/home/tn/paris/3186","PARIS - AUTH HOMETOWN","1060 MINERAL WELLS AVE","PARIS","TN","38242","US","0003186","(731) 641-4430","<MISSING>","36.285355","-88.309731","mon 9 AM - 6 PM tue 9 AM - 6 PM wed 9 AM - 6 PM thu 9 AM - 6 PM fri 9 AM - 6 PM sat 9 AM - 6 PM sun 11 AM - 4 PM "
"https://www.searshometownstores.com/","https://www.searshometownstores.com/home/in/jasper/3021","JASPER - AUTH HOMETOWN","220 BADEN STRASSE","JASPER","IN","47546","US","0003021","(812) 482-3121","<MISSING>","38.426861","-86.938538","mon 9:30 AM - 7 PM tue 9:30 AM - 7 PM wed 9:30 AM - 7 PM thu 9:30 AM - 7 PM fri 9:30 AM - 7 PM sat 9:30 AM - 6 PM sun 11 AM - 4 PM "
"https://www.searshometownstores.com/","https://www.searshometownstores.com/home/ia/spencer/3831","SPENCER - AUTH HOMETOWN","915 13TH ST SW","SPENCER","IA","51301","US","0003831","(712) 264-1111","<MISSING>","43.124199","-95.156242","mon 9:30 AM - 7 PM tue 9:30 AM - 7 PM wed 9:30 AM - 7 PM thu 9:30 AM - 7 PM fri 9:30 AM - 7 PM sat 9 AM - 6 PM sun 11 AM - 4 PM "
"https://www.searshometownstores.com/","https://www.searshometownstores.com/home/ia/fort dodge/1871","FORT DODGE AUTH HMTWN STORE","217 S 25TH ST SUITE A02","FORT DODGE","IA","50501","US","0001871","(515) 574-8000","<MISSING>","42.504","-94.163","mon 9 AM - 7 PM tue 9 AM - 7 PM wed 9 AM - 7 PM thu 9 AM - 7 PM fri 9 AM - 7 PM sat 9 AM - 6 PM sun 12 AM - 5 PM "
"https://www.searshometownstores.com/","https://www.searshometownstores.com/home/ne/fremont/3920","FREMONT - AUTH HOMETOWN","1690 E 23RD ST","FREMONT","NE","68025","US","0003920","(402) 727-5225","<MISSING>","41.451321","-96.476334","mon 9:30 AM - 7 PM tue 9:30 AM - 7 PM wed 9:30 AM - 7 PM thu 9:30 AM - 7 PM fri 9:30 AM - 7 PM sat 9 AM - 6 PM sun 12 AM - 5 PM "
"https://www.searshometownstores.com/","https://www.searshometownstores.com/home/ga/east ellijay/3635","E ELLIJAY - AUTH HOMETOWN","67 FOWLER ST","EAST ELLIJAY","GA","30539","US","0003635","(706) 636-1255","<MISSING>","34.685291","-84.474792","mon 9 AM - 6 PM tue 9 AM - 6 PM wed 9 AM - 6 PM thu 9 AM - 6 PM fri 9 AM - 6 PM sat 9 AM - 6 PM sun 11 AM - 4 PM "
"https://www.searshometownstores.com/","https://www.searshometownstores.com/home/tn/crossville/3176","CUMBERLAND SQ","1860 N MAIN ST","CROSSVILLE","TN","38555","US","0003176","(931) 456-7678","<MISSING>","35.97308792","-85.03805414","mon 9 AM - 6 PM tue 9 AM - 6 PM wed 9 AM - 6 PM thu 9 AM - 6 PM fri 9 AM - 6 PM sat 9 AM - 6 PM sun 11 AM - 4 PM "
"https://www.searshometownstores.com/","https://www.searshometownstores.com/home/nc/murphy/3416","VALLEY VLG S/C","1262 ANDREWS RD","MURPHY","NC","28906","US","0003416","(828) 837-2161","<MISSING>","35.107746","-84.011024","mon 9 AM - 6 PM tue 9 AM - 6 PM wed 9 AM - 6 PM thu 9 AM - 6 PM fri 9 AM - 6 PM sat 9 AM - 6 PM sun 9 AM - 2 PM "
"https://www.searshometownstores.com/","https://www.searshometownstores.com/home/ga/blairsville/3896","BLAIRSVILLE - AUTH HOMETOWN","45 HOMETOWN WAY SUITE A","BLAIRSVILLE","GA","30512","US","0003896","(706) 745-6600","<MISSING>","34.881395","-83.947326","mon 9 AM - 6 PM tue 9 AM - 6 PM wed 9 AM - 6 PM thu 9 AM - 6 PM fri 9 AM - 6 PM sat 9 AM - 6 PM sun 12 AM - 5 PM "
"https://www.searshometownstores.com/","https://www.searshometownstores.com/home/ar/west helena/3926","WEST HELENA - AUTH HOMETOWN","1005 HIGHWAY #49 WEST","WEST HELENA","AR","72390","US","0003926","(870) 572-0001","<MISSING>","34.55418","-90.662823","mon 8.30 AM - 6 PM tue 8.30 AM - 6 PM wed 8.30 AM - 6 PM thu 8.30 AM - 6 PM fri 8.30 AM - 6 PM sat 8.30 AM - 6 PM sun 11 AM - 4 PM "
"https://www.searshometownstores.com/","https://www.searshometownstores.com/home/ar/forrest city/3117","FORREST CITY -AUTH HOMETOWN","828 N WASHINGTON ST","FORREST CITY","AR","72335","US","0003117","(870) 633-5710","<MISSING>","35.015629","-90.787277","mon 9 AM - 6 PM tue 9 AM - 6 PM wed 9 AM - 6 PM thu 9 AM - 6 PM fri 9 AM - 6 PM sat 9 AM - 6 PM sun 12 AM - 5 PM "
"https://www.searshometownstores.com/","https://www.searshometownstores.com/home/ar/wynne/3880","WYNNE - AUTH HOMETOWN","702 HWY 64 E","WYNNE","AR","72396","US","0003880","(870) 238-5900","<MISSING>","35.235371","-90.784348","mon 8.30 AM - 6 PM tue 8.30 AM - 6 PM wed 8.30 AM - 6 PM thu 8.30 AM - 6 PM fri 8.30 AM - 6 PM sat 8.30 AM - 6 PM sun 12 AM - 5 PM "
"https://www.searshometownstores.com/","https://www.searshometownstores.com/home/ar/west memphis/3777","W MEMPHIS - AUTH HOMETOWN","209 SHOPPINGWAY BLVD","WEST MEMPHIS","AR","72301","US","0003777","(870) 735-0001","<MISSING>","35.165428","-90.187286","mon 9 AM - 6 PM tue 9 AM - 6 PM wed 9 AM - 6 PM thu 9 AM - 6 PM fri 9 AM - 6 PM sat 9 AM - 6 PM sun 12 AM - 5 PM "
"https://www.searshometownstores.com/","https://www.searshometownstores.com/home/ar/cabot/4142","CABOT - AUTH HOMETOWN","905 WEST MAIN STREET","CABOT","AR","72023","US","0004142","(501) 605-5900","<MISSING>","34.975998","-92.024334","mon 9:30 AM - 7 PM tue 9:30 AM - 7 PM wed 9:30 AM - 7 PM thu 9:30 AM - 7 PM fri 9:30 AM - 7 PM sat 9 AM - 6 PM sun 12 AM - 5 PM "
"https://www.searshometownstores.com/","https://www.searshometownstores.com/home/ms/olive branch/7614","VILLAGE SHOPS AT CRUMPLER PLC","7501 GOODMAN RD SUITE E","OLIVE BRANCH","MS","38654","US","0007614","(662) 890-9334","<MISSING>","34.962181","-89.856727","mon 9:30 AM - 6:30 PM tue 9:30 AM - 6:30 PM wed 9:30 AM - 6:30 PM thu 9:30 AM - 6:30 PM fri 9:30 AM - 6:30 PM sat 9:30 AM - 6:30 PM sun 12 AM - 5 PM "
"https://www.searshometownstores.com/","https://www.searshometownstores.com/home/ar/heber springs/3873","HEBER SPRINGS-AUTH HOMETOWN","1010 HIGHWAY 25B","HEBER SPRINGS","AR","72543","US","0003873","(501) 206-1700","<MISSING>","35.473175","-92.00898","mon 9 AM - 6 PM tue 9 AM - 6 PM wed 9 AM - 6 PM thu 9 AM - 6 PM fri 9 AM - 6 PM sat 9 AM - 6 PM sun 11 AM - 4 PM "
"https://www.searshometownstores.com/","https://www.searshometownstores.com/home/ar/batesville/3057","BATESVILLE - AUTH HOMETOWN","2395 HARRISON ST","BATESVILLE","AR","72501","US","0003057","(870) 793-5791","<MISSING>","35.769268","-91.626068","mon 9 AM - 6 PM tue 9 AM - 6 PM wed 9 AM - 6 PM thu 9 AM - 6 PM fri 9 AM - 6 PM sat 9 AM - 6 PM sun 12 AM - 5 PM "
"https://www.searshometownstores.com/","https://www.searshometownstores.com/home/ar/monticello/3007","MONTICELLO - AUTH HOMETOWN","749 WALMART ACCESS RD","MONTICELLO","AR","71655","US","0003007","(870) 367-6222","<MISSING>","33.634235","-91.803352","mon 9 AM - 6 PM tue 9 AM - 6 PM wed 9 AM - 6 PM thu 9 AM - 6 PM fri 9 AM - 6 PM sat 9 AM - 6 PM sun 11 AM - 4 PM "
"https://www.searshometownstores.com/","https://www.searshometownstores.com/home/ms/oxford/3327","OXFORD - AUTH HOMETOWN","707 N LAMAR BLVD","OXFORD","MS","38655","US","0003327","(662) 234-4541","<MISSING>","34.373108","-89.517029","mon 9 AM - 6 PM tue 9 AM - 6 PM wed 9 AM - 6 PM thu 9 AM - 6 PM fri 9 AM - 6 PM sat 9 AM - 6 PM sun 12 AM - 5 PM "
"https://www.searshometownstores.com/","https://www.searshometownstores.com/home/ri/no kingstown/5571","N KINGSTOWN - AUTH HOMETOWN","6655 POST RD","NO KINGSTOWN","RI","02852","US","0005571","(401) 885-1120","<MISSING>","41.617207","-71.457976","mon 9 AM - 7 PM tue 9 AM - 7 PM wed 9 AM - 7 PM thu 9 AM - 7 PM fri 9 AM - 7 PM sat 9 AM - 6 PM sun 10 AM - 4 PM "
"https://www.searshometownstores.com/","https://www.searshometownstores.com/home/il/jacksonville/3591","LINCOLN SQ S/C","901 W MORTON AVE STE 18C","JACKSONVILLE","IL","62650","US","0003591","(217) 243-8181","<MISSING>","39.723286","-90.240952","mon 9 AM - 6 PM tue 9 AM - 6 PM wed 9 AM - 6 PM thu 9 AM - 6 PM fri 9 AM - 6 PM sat 9 AM - 6 PM sun 12 AM - 5 PM "
"https://www.searshometownstores.com/","https://www.searshometownstores.com/home/il/ottawa/3142","OTTAWA - AUTH HOMETOWN","4103 HOLIDAY LN","OTTAWA","IL","61350","US","0003142","(815) 433-6401","<MISSING>","41.378632","-88.837723","mon 9:30 AM - 7 PM tue 9:30 AM - 7 PM wed 9:30 AM - 7 PM thu 9:30 AM - 7 PM fri 9:30 AM - 7 PM sat 9:30 AM - 6 PM sun 11 AM - 4 PM "
"https://www.searshometownstores.com/","https://www.searshometownstores.com/home/il/champaign/4877","CHAMPAIGN - AUTH HOMETOWN","2001 N PROSPECT AVE. UNIT 001","CHAMPAIGN","IL","61822","US","0004877","(217) 355-3125","<MISSING>","40.136072","-88.240927","mon 9:30 AM - 7 PM tue 9:30 AM - 7 PM wed 9:30 AM - 7 PM thu 9:30 AM - 7 PM fri 9:30 AM - 7 PM sat 9:30 AM - 6 PM sun 11 AM - 4 PM "
"https://www.searshometownstores.com/","https://www.searshometownstores.com/home/ia/burlington/3067","BURLINGTON - AUTH HOMETOWN","2750 MOUNT PLEASANT ST UNIT100","BURLINGTON","IA","52601","US","0003067","(319) 753-6580","<MISSING>","40.825623","-91.137894","mon 9 AM - 7 PM tue 9 AM - 6 PM wed 9 AM - 6 PM thu 9 AM - 6 PM fri 9 AM - 6 PM sat 9 AM - 6 PM sun 11 AM - 4 PM "
"https://www.searshometownstores.com/","https://www.searshometownstores.com/home/il/dekalb/3450","DEKALB - AUTH HOMETOWN","2359 SYCAMORE ROAD","DEKALB","IL","60115","US","0003450","(815) 705-0977","<MISSING>","41.371282","-88.43361","mon 9:30 AM - 7 PM tue 9:30 AM - 7 PM wed 9:30 AM - 7 PM thu 9:30 AM - 7 PM fri 9:30 AM - 7 PM sat 9:30 AM - 6 PM sun 11 AM - 4 PM "
"https://www.searshometownstores.com/","https://www.searshometownstores.com/home/ia/keokuk/3502","KEOKUK - AUTH HOMETOWN","3533 MAIN ST STE 3","KEOKUK","IA","52632","US","0003502","(319) 524-8282","<MISSING>","40.422897","-91.410225","mon 9 AM - 6 PM tue 9 AM - 6 PM wed 9 AM - 6 PM thu 9 AM - 6 PM fri 9 AM - 6 PM sat 9 AM - 6 PM sun 11 AM - 4 PM "
"https://www.searshometownstores.com/","https://www.searshometownstores.com/home/il/litchfield/3970","LITCHFIELD - AUTH HOMETOWN","19 LITCHFIELD PLAZA S/C","LITCHFIELD","IL","62056","US","0003970","(217) 324-7067","<MISSING>","39.179587","-89.668639","mon 9 AM - 7 PM tue 9 AM - 7 PM wed 9 AM - 7 PM thu 9 AM - 7 PM fri 9 AM - 7 PM sat 9 AM - 7 PM sun 11 AM - 4 PM "
"https://www.searshometownstores.com/","https://www.searshometownstores.com/home/fl/fort pierce/1845","FORT PIERCE - AUTH HOMETOWN","3207 S US HWY 1","FORT PIERCE","FL","34982","US","0001845","(772) 489-8055","<MISSING>","27.406715","-80.326054","mon 9 AM - 6 PM tue 9 AM - 6 PM wed 9 AM - 6 PM thu 9 AM - 6 PM fri 9 AM - 6 PM sat 9 AM - 6 PM sun 11 AM - 4 PM "
"https://www.searshometownstores.com/","https://www.searshometownstores.com/home/ca/tehachapi/3219","TEHACHAPI - AUTH HOMETOWN","835 TUCKER RD # A AND B","TEHACHAPI","CA","93561","US","0003219","(661) 822-4914","<MISSING>","35.122749","-118.468822","mon 9 AM - 6 PM tue 9 AM - 6 PM wed 9 AM - 6 PM thu 9 AM - 6 PM fri 9 AM - 6 PM sat 9 AM - 6 PM sun 9 AM - 2 PM "
"https://www.searshometownstores.com/","https://www.searshometownstores.com/home/ca/taft/3999","TAFT - AUTH HOMETOWN","220 CENTER ST","TAFT","CA","93268","US","0003999","(661) 763-5122","<MISSING>","35.139801","-119.45415","mon 9 AM - 6 PM tue 9 AM - 6 PM wed 9 AM - 6 PM thu 9 AM - 6 PM fri 9 AM - 6 PM sat 9 AM - 6 PM sun 11 AM - 4 PM "
"https://www.searshometownstores.com/","https://www.searshometownstores.com/home/mt/butte/3288","BUTTE - AUTH HOMETOWN","3703 HARRISON AVE # G","BUTTE","MT","59701","US","0003288","(406) 494-7794","<MISSING>","45.969215","-112.50581","mon 9 AM - 6 PM tue 9 AM - 6 PM wed 9 AM - 6 PM thu 9 AM - 6 PM fri 9 AM - 6 PM sat 9 AM - 6 PM sun 11 AM - 4 PM "
"https://www.searshometownstores.com/","https://www.searshometownstores.com/home/mt/helena/3298","HELENA - AUTH HOMETOWN","1320 MARKET AVE","HELENA","MT","59602","US","0003298","(406) 442-4212","<MISSING>","46.616703","-112.02296","mon 9 AM - 6 PM tue 9 AM - 6 PM wed 9 AM - 6 PM thu 9 AM - 6 PM fri 9 AM - 6 PM sat 9 AM - 6 PM sun 11 AM - 4 PM "
"https://www.searshometownstores.com/","https://www.searshometownstores.com/home/pa/saint marys/3974","ST MARYS - AUTH HOMETOWN","1385 BUCKTAIL RD","SAINT MARYS","PA","15857","US","0003974","(814) 781-1882","<MISSING>","41.431381","-78.513405","mon 9 AM - 7 PM tue 9 AM - 7 PM wed 9 AM - 7 PM thu 9 AM - 7 PM fri 9 AM - 7 PM sat 9 AM - 6 PM sun 11 AM - 4 PM "
"https://www.searshometownstores.com/","https://www.searshometownstores.com/home/ny/warsaw/3148","WARSAW - AUTH HOMETOWN","424 N. MAIN ST","WARSAW","NY","14569","US","0003148","(585) 786-3180","<MISSING>","42.754578","-78.132507","mon 8.30 AM - 6 PM tue 8.30 AM - 6 PM wed 8.30 AM - 6 PM thu 8.30 AM - 6 PM fri 8.30 AM - 7 PM sat 9 AM - 6 PM sun 11 AM - 4 PM "
"https://www.searshometownstores.com/","https://www.searshometownstores.com/home/pa/pleasantville/4692","CITY -AUTH HOMETOWN STORE","123 EAST STATE ST","PLEASANTVILLE","PA","16341","US","0004692","(814) 589-7631","<MISSING>","41.591636","-79.580076","mon 8 AM - 7 PM tue 8 AM - 7 PM wed 8 AM - 7 PM thu 8 AM - 7 PM fri 8 AM - 7 PM sat 8 AM - 4 PM sun 8 AM - 4 PM "
"https://www.searshometownstores.com/","https://www.searshometownstores.com/home/pa/erie/4879","ERIE-AUTH HOMETOWN","7200 PEACH STREET SPACE 460","ERIE","PA","16509","US","0004879","(814) 868-5222","<MISSING>","42.051933","-80.090674","mon 9 AM - 7 PM tue 9 AM - 7 PM wed 9 AM - 7 PM thu 9 AM - 7 PM fri 9 AM - 7 PM sat 9 AM - 7 PM sun 11 AM - 4 PM "
"https://www.searshometownstores.com/","https://www.searshometownstores.com/home/pa/kittanning/3345","KITTANNING - AUTH HOMETOWN","FRANKLIN VILLAGE MALL 19A","KITTANNING","PA","16201","US","0003345","(724) 543-2555","<MISSING>","40.812198","-79.548608","mon 9 AM - 7 PM tue 9 AM - 7 PM wed 9 AM - 7 PM thu 9 AM - 7 PM fri 9 AM - 7 PM sat 9 AM - 7 PM sun 9 AM - 2 PM "
"https://www.searshometownstores.com/","https://www.searshometownstores.com/home/tx/sweetwater/5560","SWEETWATER-BUDDY'S","309 NE GEORGIA  AVE STE 190","SWEETWATER","TX","79556","US","0005560","(325) 933-2536","<MISSING>","40.05579","-84.240439","mon 9:30 AM - 7 PM tue 9:30 AM - 7 PM wed 9:30 AM - 7 PM thu 9:30 AM - 7 PM fri 9:30 AM - 7 PM sat 9 AM - 6 PM sun 12 AM - 5 PM "
"https://www.searshometownstores.com/","https://www.searshometownstores.com/home/oh/van wert/3204","VAN WERT - AUTH HOMETOWN","745 FOX ROAD","VAN WERT","OH","45891","US","0003204","(419) 232-4900","<MISSING>","40.851604","-84.597344","mon 9 AM - 6 PM tue 9 AM - 6 PM wed 9 AM - 6 PM thu 9 AM - 6 PM fri 9 AM - 6 PM sat 9 AM - 6 PM sun 11 AM - 4 PM "
"https://www.searshometownstores.com/","https://www.searshometownstores.com/home/in/connersville/3112","CONNERSVILLE -AUTH HOMETOWN","105 W 24TH ST","CONNERSVILLE","IN","47331","US","0003112","(765) 827-4500","<MISSING>","39.664165","-85.12941","mon 9 AM - 6 PM tue 9 AM - 6 PM wed 9 AM - 6 PM thu 9 AM - 6 PM fri 9 AM - 6 PM sat 9 AM - 6 PM sun 11 AM - 4 PM "
"https://www.searshometownstores.com/","https://www.searshometownstores.com/home/oh/bowling green/3804","BOWLING GREEN-AUTH HOMETOWN","1234 N MAIN ST","BOWLING GREEN","OH","43402","US","0003804","(419) 353-6000","<MISSING>","41.397526","-83.650436","mon 9 AM - 6 PM tue 9 AM - 6 PM wed 9 AM - 6 PM thu 9 AM - 6 PM fri 9 AM - 6 PM sat 9 AM - 6 PM sun 11 AM - 4 PM "
"https://www.searshometownstores.com/","https://www.searshometownstores.com/home/oh/norwalk/7482","NORWALK - AUTH HOMETOWN","60 E MAIN STREET","NORWALK","OH","44857","US","0007482","(419) 668-0262","<MISSING>","41.243739","-82.612253","mon 9 AM - 6 PM tue 9 AM - 6 PM wed 9 AM - 6 PM thu 9 AM - 6 PM fri 9 AM - 6 PM sat 9 AM - 6 PM sun 11 AM - 4 PM "
"https://www.searshometownstores.com/","https://www.searshometownstores.com/home/mn/hutchinson/3754","HUTCHINSON - AUTH HOMETOWN","756 CENTURY AVE SW","HUTCHINSON","MN","55350","US","0003754","(320) 587-4901","<MISSING>","44.874317","-94.378136","mon 8.30 AM - 6 PM tue 8.30 AM - 6 PM wed 8.30 AM - 6 PM thu 8.30 AM - 6 PM fri 8.30 AM - 6 PM sat 8.30 AM - 6 PM sun 11 AM - 4 PM "
"https://www.searshometownstores.com/","https://www.searshometownstores.com/home/mn/litchfield/3572","LITCHFIELD - AUTH HOMETOWN","224 E HIGHWAY 12","LITCHFIELD","MN","55355","US","0003572","(320) 693-0224","<MISSING>","45.125741","-94.524864","mon 9 AM - 6 PM tue 9 AM - 6 PM wed 9 AM - 6 PM thu 9 AM - 6 PM fri 9 AM - 6 PM sat 9 AM - 6 PM sun 11 AM - 4 PM "
"https://www.searshometownstores.com/","https://www.searshometownstores.com/home/mn/marshall/3530","MARSHALL - AUTH HOMETOWN","1000 E. SOUTHVIEW DRIVE","MARSHALL","MN","56258","US","0003530","(507) 532-3200","<MISSING>","44.436681","-95.77708","mon 9 AM - 7 PM tue 9 AM - 7 PM wed 9 AM - 7 PM thu 9 AM - 7 PM fri 9 AM - 7 PM sat 9 AM - 6 PM sun 11 AM - 4 PM "
"https://www.searshometownstores.com/","https://www.searshometownstores.com/home/mn/little falls/3631","LITTLE FALLS-AUTH HOMETOWN","210 1ST STREET SOUTH EAST","LITTLE FALLS","MN","56345","US","0003631","(320) 616-2892","<MISSING>","45.975221","-94.36316","mon 9 AM - 7 PM tue 9 AM - 7 PM wed 9 AM - 7 PM thu 9 AM - 7 PM fri 9 AM - 7 PM sat 9 AM - 6 PM sun 11 AM - 4 PM "
"https://www.searshometownstores.com/","https://www.searshometownstores.com/home/ne/columbus/3011","COLUMBUS - AUTH HOMETOWN","4300 23RD ST","COLUMBUS","NE","68601","US","0003011","(402) 562-7068","<MISSING>","41.438702","-97.380829","mon 9 AM - 6 PM tue 9 AM - 6 PM wed 9 AM - 6 PM thu 9 AM - 6 PM fri 9 AM - 6 PM sat 9 AM - 6 PM sun 12 AM - 5 PM "
"https://www.searshometownstores.com/","https://www.searshometownstores.com/home/ne/kearney/3557","5011 2ND AVE","UNIT 1010","KEARNEY","NE","68847","US","0003557","(308) 233-3058","<MISSING>","40.728507","-99.084958","mon 10 AM - 8 PM tue 10 AM - 8 PM wed 10 AM - 8 PM thu 10 AM - 8 PM fri 10 AM - 8 PM sat 10 AM - 7 PM sun 12 AM - 5 PM "
"https://www.searshometownstores.com/","https://www.searshometownstores.com/home/ne/norfolk/3734","NORFOLK - AUTH HOMETOWN","2110 MARKET LN","NORFOLK","NE","68701","US","0003734","(402) 371-3505","<MISSING>","42.022167","-97.437035","mon 9 AM - 7 PM tue 9 AM - 6 PM wed 9 AM - 6 PM thu 9 AM - 7 PM fri 9 AM - 6 PM sat 9 AM - 6 PM sun 12 AM - 5 PM "
"https://www.searshometownstores.com/","https://www.searshometownstores.com/home/ca/coachella/9219","COACHELLA - AUTH HOMETOWN","49693 HARRISON STREET","COACHELLA","CA","92236","US","0009219","(760) 398-3034","<MISSING>","33.686973","-116.181727","mon 10 AM - 7:30 PM tue 10 AM - 7:30 PM wed 10 AM - 7:30 PM thu 10 AM - 7:30 PM fri 10 AM - 7:30 PM sat 10 AM - 7:30 PM sun 10 AM - 7:30 PM "
"https://www.searshometownstores.com/","https://www.searshometownstores.com/home/la/de ridder/3577","DE RIDDER - AUTH HOMETOWN","1339 N PINE","DE RIDDER","LA","70634","US","0003577","(337) 463-3257","<MISSING>","30.871233","-93.284805","mon 9 AM - 6 PM tue 9 AM - 6 PM wed 9 AM - 6 PM thu 9 AM - 6 PM fri 9 AM - 6 PM sat 9 AM - 6 PM sun 12 AM - 5 PM "
"https://www.searshometownstores.com/","https://www.searshometownstores.com/home/la/mansura/3567","MANSURA -  AUTH HOMETOWN","168 GOLDEN ROD","MANSURA","LA","71350","US","0003567","(318) 253-5640","<MISSING>","31.108","-92.0795","mon 8.30 AM - 6 PM tue 8.30 AM - 6 PM wed 8.30 AM - 6 PM thu 8.30 AM - 6 PM fri 8.30 AM - 6 PM sat 9 AM - 6 PM sun 11 AM - 4 PM "
"https://www.searshometownstores.com/","https://www.searshometownstores.com/home/mn/fergus falls/3471","FERGUS FALLS-AUTH HOMETOWN","211 W LINCOLN AVE","FERGUS FALLS","MN","56537","US","0003471","(218) 736-5404","<MISSING>","46.2835","-96.076159","mon 9 AM - 6 PM tue 9 AM - 6 PM wed 9 AM - 6 PM thu 9 AM - 6 PM fri 9 AM - 6 PM sat 9 AM - 6 PM sun 11 AM - 4 PM "
"https://www.searshometownstores.com/","https://www.searshometownstores.com/home/pa/bedford/3094","BEDFORD - AUTH HOMETOWN","9525 LINCOLN HWY","BEDFORD","PA","15522","US","0003094","(814) 623-6232","<MISSING>","40.017628","-78.483292","mon 9 AM - 7 PM tue 9 AM - 7 PM wed 9 AM - 7 PM thu 9 AM - 7 PM fri 9 AM - 7 PM sat 9 AM - 6 PM sun 11 AM - 4 PM "
"https://www.searshometownstores.com/","https://www.searshometownstores.com/home/il/robinson/3921","ROBINSON - AUTH HOMETOWN","2092 E MAIN ST","ROBINSON","IL","62454","US","0003921","(618) 804-9412","<MISSING>","39.005821","-87.720413","mon 9 AM - 6 PM tue 9 AM - 6 PM wed 9 AM - 6 PM thu 9 AM - 6 PM fri 9 AM - 6 PM sat 9 AM - 6 PM sun 11 AM - 4 PM "
"https://www.searshometownstores.com/","https://www.searshometownstores.com/home/il/olney/3881","OLNEY - AUTH HOMETOWN","712 S. WEST ST","OLNEY","IL","62450","US","0003881","(618) 392-3434","<MISSING>","38.723772","-88.093273","mon 9 AM - 6 PM tue 9 AM - 6 PM wed 9 AM - 6 PM thu 9 AM - 6 PM fri 9 AM - 6 PM sat 9 AM - 6 PM sun 12 AM - 5 PM "
"https://www.searshometownstores.com/","https://www.searshometownstores.com/home/il/effingham/3022","EFFINGHAM - AUTH HOMETOWN","1306 THELMA KELLER AVE","EFFINGHAM","IL","62401","US","0003022","(217) 342-2658","<MISSING>","39.139263","-88.563286","mon 9 AM - 7 PM tue 9 AM - 7 PM wed 9 AM - 7 PM thu 9 AM - 7 PM fri 9 AM - 7 PM sat 9 AM - 7 PM sun 11 AM - 4 PM "
"https://www.searshometownstores.com/","https://www.searshometownstores.com/home/il/flora/3541","FLORA - AUTH HOMETOWN","501 W NORTH AAVE","FLORA","IL","62839","US","0003541","(618) 662-3232","<MISSING>","38.667945","-88.491967","mon 9 AM - 6 PM tue 9 AM - 6 PM wed 9 AM - 6 PM thu 9 AM - 6 PM fri 9 AM - 6 PM sat 9 AM - 6 PM sun 12 AM - 5 PM "
"https://www.searshometownstores.com/","https://www.searshometownstores.com/home/mi/fenton/7671","FENTON -AUTH HOMETOWN STORE","14283 FENTON RD","FENTON","MI","48430","US","0007671","(810) 629-1900","<MISSING>","42.805265","-83.706062","mon 9 AM - 6 PM tue 9 AM - 6 PM wed 9 AM - 6 PM thu 9 AM - 6 PM fri 9 AM - 6 PM sat 9 AM - 6 PM sun 11 AM - 4 PM "
"https://www.searshometownstores.com/","https://www.searshometownstores.com/home/mi/caro/3630","CARO - AUTH HOMETOWN","1152 CLEAVER RD","CARO","MI","48723","US","0003630","(989) 672-2300","<MISSING>","43.500008","-83.387772","mon 9 AM - 6 PM tue 9 AM - 6 PM wed 9 AM - 6 PM thu 9 AM - 6 PM fri 9 AM - 6 PM sat 9 AM - 6 PM sun 11 AM - 4 PM "
"https://www.searshometownstores.com/","https://www.searshometownstores.com/home/mi/saginaw/3140","SAGINAW - AUTH HOMETOWN","4620 STATE STREET","SAGINAW","MI","48603","US","0003140","(989) 355-1850","<MISSING>","43.43893","-84.00794","mon 9 AM - 6 PM tue 9 AM - 6 PM wed 9 AM - 6 PM thu 9 AM - 6 PM fri 9 AM - 6 PM sat 9 AM - 6 PM sun 11 AM - 4 PM "
"https://www.searshometownstores.com/","https://www.searshometownstores.com/home/mi/ionia/3801","IONIA - AUTH HOMETOWN","205 S DEXTER ST","IONIA","MI","48846","US","0003801","(616) 527-4100","<MISSING>","42.981176","-85.070223","mon 9 AM - 6 PM tue 9 AM - 6 PM wed 9 AM - 6 PM thu 9 AM - 6 PM fri 9 AM - 6 PM sat 9 AM - 6 PM sun 11 AM - 4 PM "
"https://www.searshometownstores.com/","https://www.searshometownstores.com/home/ky/danville/3126","DANVILLE - AUTH HOMETOWN","804 S 4TH ST","DANVILLE","KY","40422","US","0003126","(859) 236-3011","<MISSING>","37.632424","-84.774984","mon 9 AM - 6 PM tue 9 AM - 6 PM wed 9 AM - 6 PM thu 9 AM - 6 PM fri 9 AM - 6 PM sat 9 AM - 6 PM sun 11 AM - 4 PM "
"https://www.searshometownstores.com/","https://www.searshometownstores.com/home/ky/somerset/3136","SOMERSET - AUTH HOMETOWN","370 S HIGHWAY 27 STE 9","SOMERSET","KY","42501","US","0003136","(606) 679-0505","<MISSING>","37.089286","-84.616741","mon 9 AM - 6 PM tue 9 AM - 6 PM wed 9 AM - 6 PM thu 9 AM - 6 PM fri 9 AM - 6 PM sat 9 AM - 7 PM sun 12 AM - 5 PM "
"https://www.searshometownstores.com/","https://www.searshometownstores.com/home/ks/manhattan/4653","MANHATTAN - AUTH HOMETOWN","8055 EAST 24 HWY SUITE B","MANHATTAN","KS","66502","US","0004653","(785) 539-9500","<MISSING>","39.195231","-96.528794","mon 9 AM - 6:30 PM tue 9 AM - 6:30 PM wed 9 AM - 6:30 PM thu 9 AM - 6:30 PM fri 9 AM - 6:30 PM sat 9 AM - 6 PM sun 12 AM - 5 PM "
"https://www.searshometownstores.com/","https://www.searshometownstores.com/home/ks/junction city/3326","JUNCTION CITY-AUTH HOMETOWN","101 N WASHINGTON STREET","JUNCTION CITY","KS","66441","US","0003326","(785) 238-7327","<MISSING>","39.021381","-96.823784","mon 9 AM - 6 PM tue 9 AM - 6 PM wed 9 AM - 6 PM thu 9 AM - 6 PM fri 9 AM - 6 PM sat 9 AM - 6 PM sun 12 AM - 5 PM "
"https://www.searshometownstores.com/","https://www.searshometownstores.com/home/ks/atchison/3592","ATCHISON - AUTH HOMETOWN","101 N 4TH ST","ATCHISON","KS","66002","US","0003592","(913) 367-3745","<MISSING>","39.562057","-95.117493","mon 9 AM - 6 PM tue 9 AM - 6 PM wed 9 AM - 6 PM thu 9 AM - 6 PM fri 9 AM - 6 PM sat 9 AM - 5 PM sun 11 AM - 4 PM "
"https://www.searshometownstores.com/","https://www.searshometownstores.com/home/ks/ottawa/3218","OTTAWA - AUTH HOMETOWN","220 S MAIN","OTTAWA","KS","66067","US","0003218","(785) 242-2820","<MISSING>","38.615376","-95.26828","mon 9 AM - 6:30 PM tue 9 AM - 6:30 PM wed 9 AM - 6:30 PM thu 9 AM - 6:30 PM fri 9 AM - 6:30 PM sat 9 AM - 6 PM sun 12 AM - 5 PM "
"https://www.searshometownstores.com/","https://www.searshometownstores.com/home/ks/overland park/1797","SEARS HOME & LIFE OVERLAND","6327 W119TH STREET","OVERLAND PARK","KS","66209","US","0001797","(913) 274-8014","<MISSING>","38.9121","-94.65901","mon 9 AM - 4 PM tue 10 AM - 7 PM wed 10 AM - 7 PM thu 10 AM - 7 PM fri 10 AM - 7 PM sat 9 AM - 6 PM sun 10 AM - 6 PM "
"https://www.searshometownstores.com/","https://www.searshometownstores.com/home/mo/maryville/7782","MARYVILLE - AUTH HOMETOWN","1315 SOUTH MAIN ST STE A","MARYVILLE","MO","64468","US","0007782","(660) 582-2932","<MISSING>","40.329587","-94.873719","mon 9 AM - 6 PM tue 9 AM - 6 PM wed 9 AM - 6 PM thu 9 AM - 6 PM fri 9 AM - 6 PM sat 9 AM - 6 PM sun 12 AM - 5 PM "
"https://www.searshometownstores.com/","https://www.searshometownstores.com/home/pr/barranquitas/3714","KM 2.8 BO QUEBRADILLAS","RR 152","BARRANQUITAS","PR","00794","US","0003714","(787) 478-3119","<MISSING>","18.2042","-66.311899","mon 9 AM - 6 PM tue 9 AM - 6 PM wed 9 AM - 6 PM thu 9 AM - 6 PM fri 9 AM - 6 PM sat 9 AM - 6 PM sun 11 AM - 5 PM "
"https://www.searshometownstores.com/","https://www.searshometownstores.com/home/pr/naranjito/2385","PR-152","EL MERCADO PLAZA","NARANJITO","PR","00719","US","0002385","(787) 495-0432","<MISSING>","18.272721","-66.272053","mon 9 AM - 5 PM tue 9 AM - 5 PM wed 9 AM - 5 PM thu 9 AM - 5 PM fri 9 AM - 6 PM sat 9 AM - 6 PM sun 11 AM - 5 PM "
"https://www.searshometownstores.com/","https://www.searshometownstores.com/home/pr/toa baja/2707","CARRETERA NO 2","BARRIO CANDELARIA KM 18.3","TOA BAJA","PR","00949","US","0002707","(787) 780-1482","<MISSING>","18.406436","-66.223175","mon 9 AM - 6 PM tue 9 AM - 6 PM wed 9 AM - 6 PM thu 9 AM - 6 PM fri 9 AM - 6 PM sat 9 AM - 6 PM sun 11 AM - 5 PM "
"https://www.searshometownstores.com/","https://www.searshometownstores.com/home/pr/manati/7765","EL TRIGAL PLAZA SC","ROAD #2 INT. ROAD 149","MANATI","PR","00674","US","0007765","(787) 854-3606","<MISSING>","18.430958","-66.484242","mon 9 AM - 6 PM tue 9 AM - 6 PM wed 9 AM - 6 PM thu 9 AM - 6 PM fri 9 AM - 6 PM sat 9 AM - 6 PM sun 11 AM - 5 PM "
"https://www.searshometownstores.com/","https://www.searshometownstores.com/home/pr/bayamon/7735","BAYAMON - AUTH HOMETOWN","CARR 167 ESQUINA 10","BAYAMON","PR","00958","US","0007735","(787) 785-2241","<MISSING>","18.444722","-66.077812","mon 9 AM - 6 PM tue 9 AM - 6 PM wed 9 AM - 6 PM thu 9 AM - 6 PM fri 9 AM - 6 PM sat 9 AM - 6 PM sun 11 AM - 5 PM "
"https://www.searshometownstores.com/","https://www.searshometownstores.com/home/pr/humacao/9976","CARRETERA # 3 KM 82.5","BARRIO RIO ABAJO","HUMACAO","PR","00791","US","0009976","(787) 285-3375","<MISSING>","18.150827","-65.802978","mon 9 AM - 6 PM tue 9 AM - 6 PM wed 9 AM - 6 PM thu 9 AM - 6 PM fri 9 AM - 6 PM sat 9 AM - 6 PM sun 11 AM - 5 PM "
"https://www.searshometownstores.com/","https://www.searshometownstores.com/home/pr/san sebastian/3299","4598 AVENUE","ARCADIO ESTRADA STE 1","SAN SEBASTIAN","PR","00685","US","0003299","(787) 896-3300","<MISSING>","18.3328","-66.9751","mon 9 AM - 6 PM tue 9 AM - 6 PM wed 9 AM - 6 PM thu 9 AM - 6 PM fri 9 AM - 6 PM sat 9 AM - 6 PM sun 11 AM - 5 PM "
"https://www.searshometownstores.com/","https://www.searshometownstores.com/home/pr/aguadilla/3786","FERRAM PLZ RD #2","KM 125.1 INT RD #459","AGUADILLA","PR","00603","US","0003786","(787) 882-7290","<MISSING>","18.4571","-67.1328","mon 9 AM - 6 PM tue 9 AM - 6 PM wed 9 AM - 6 PM thu 9 AM - 6 PM fri 9 AM - 6 PM sat 9 AM - 6 PM sun 11 AM - 5 PM "
"https://www.searshometownstores.com/","https://www.searshometownstores.com/home/in/knox/3571","KNOX - AUTH HOMETOWN","1704 S HEATON STREET","KNOX","IN","46534","US","0003571","(574) 772-4702","<MISSING>","41.266029","-86.620621","mon 8 AM - 6 PM tue 8 AM - 6 PM wed 8 AM - 6 PM thu 8 AM - 6 PM fri 8 AM - 6 PM sat 8 AM - 6 PM sun 11 AM - 4 PM "
"https://www.searshometownstores.com/","https://www.searshometownstores.com/home/in/plymouth/3081","PLYMOUTH - AUTH HOMETOWN","7628 MICHIGAN RD","PLYMOUTH","IN","46563","US","0003081","(574) 936-2171","<MISSING>","41.36751","-86.312739","mon 9 AM - 7 PM tue 9 AM - 7 PM wed 9 AM - 7 PM thu 9 AM - 7 PM fri 9 AM - 7 PM sat 9 AM - 6 PM sun 11 AM - 4 PM "
"https://www.searshometownstores.com/","https://www.searshometownstores.com/home/wi/burlington/3181","BURLINGTON - AUTH HOMETOWN","1757 MILWAUKEE AVE","BURLINGTON","WI","53105","US","0003181","(262) 767-7430","<MISSING>","42.594902","-88.415848","mon 9:30 AM - 6 PM tue 9:30 AM - 6 PM wed 9:30 AM - 6 PM thu 9:30 AM - 6 PM fri 9:30 AM - 6 PM sat 9:30 AM - 6 PM sun 11 AM - 4 PM "
"https://www.searshometownstores.com/","https://www.searshometownstores.com/home/ca/blythe/3279","BLYTHE - AUTH HOMETOWN","155 N SPRING STREET","BLYTHE","CA","92225","US","0003279","(760) 922-7191","<MISSING>","33.611624","-114.598396","mon 9 AM - 6 PM tue 9 AM - 6 PM wed 9 AM - 6 PM thu 9 AM - 6 PM fri 9 AM - 6 PM sat 9 AM - 6 PM sun 9 AM - 2 PM "
"https://www.searshometownstores.com/","https://www.searshometownstores.com/home/az/parker/3633","PARKER - AUTH HOMETOWN","1009 ARIZONA AVE","PARKER","AZ","85344","US","0003633","(928) 669-9447","<MISSING>","34.153881","-114.27996","mon 9 AM - 6 PM tue 9 AM - 6 PM wed 9 AM - 6 PM thu 9 AM - 6 PM fri 9 AM - 6 PM sat 9 AM - 6 PM sun 9 AM - 2 PM "
"https://www.searshometownstores.com/","https://www.searshometownstores.com/home/ar/pocahontas/3709","POCAHONTAS - AUTH HOMETOWN","2607 HWY 67 SOUTH","POCAHONTAS","AR","72455","US","0003709","(870) 892-3331","<MISSING>","36.229568","-90.958145","mon 8.30 AM - 6 PM tue 8.30 AM - 6 PM wed 8.30 AM - 6 PM thu 8.30 AM - 6 PM fri 8.30 AM - 6 PM sat 9 AM - 6 PM sun 12 AM - 5 PM "
"https://www.searshometownstores.com/","https://www.searshometownstores.com/home/ar/ash flat/3794","ASH FLAT - AUTH HOMETOWN","475 HWY 62/412","ASH FLAT","AR","72513","US","0003794","(870) 994-3117","<MISSING>","36.237385","-91.597572","mon 8.30 AM - 6 PM tue 8.30 AM - 6 PM wed 8.30 AM - 6 PM thu 8.30 AM - 6 PM fri 8.30 AM - 6 PM sat 9 AM - 6 PM sun 12 AM - 5 PM "
"https://www.searshometownstores.com/","https://www.searshometownstores.com/home/mo/poplar bluff/3312","POPLAR BLUFF -AUTH HOMETOWN","720 S WESTWOOD BLVD","POPLAR BLUFF","MO","63901","US","0003312","(573) 785-8221","<MISSING>","36.752216","-90.40934","mon 9:30 AM - 7 PM tue 9:30 AM - 7 PM wed 9:30 AM - 7 PM thu 9:30 AM - 7 PM fri 9:30 AM - 7 PM sat 9 AM - 6 PM sun 12 AM - 6 PM "
"https://www.searshometownstores.com/","https://www.searshometownstores.com/home/ar/mountain view/2736","MOUNTAIN VIEW-AUTH HOMETOWN","107 MEADOW VIEW DRIVE","MOUNTAIN VIEW","AR","72560","US","0002736","(870) 269-8119","<MISSING>","35.8696","-92.1189","mon 9 AM - 6 PM tue 9 AM - 6 PM wed 9 AM - 6 PM thu 9 AM - 6 PM fri 9 AM - 6 PM sat 9 AM - 6 PM sun 11 AM - 5 PM "
"https://www.searshometownstores.com/","https://www.searshometownstores.com/home/ar/mountain home/3147","MOUNTAIN HOME -AUTH HOMETWN","1029 HIGHWAY 62 E STE 1","MOUNTAIN HOME","AR","72653","US","0003147","(870) 425-3191","<MISSING>","36.349693","-92.36895","mon 9 AM - 6 PM tue 9 AM - 6 PM wed 9 AM - 6 PM thu 9 AM - 6 PM fri 9 AM - 6 PM sat 9 AM - 6 PM sun 12 AM - 5 PM "
"https://www.searshometownstores.com/","https://www.searshometownstores.com/home/ok/grove/5963","GROVE-BUDDY'S","1717 S. BROADWAY ST","GROVE","OK","74344","US","0005963","() -","<MISSING>","36.578603","-94.7719823","mon 8 AM - 9 PM tue 8 AM - 9 PM wed 8 AM - 9 PM thu 8 AM - 9 PM fri 8 AM - 9 PM sat 8 AM - 9 PM sun 9 AM - 6 PM "
"https://www.searshometownstores.com/","https://www.searshometownstores.com/home/ar/berryville/1934","BERRYVILLE - AUTH HOMETOWN","322 EUREKA STREET","BERRYVILLE","AR","72616","US","0001934","(870) 423-2122","<MISSING>","36.367945","-93.571313","mon 9 AM - 6 PM tue 9 AM - 6 PM wed 9 AM - 6 PM thu 9 AM - 6 PM fri 9 AM - 6 PM sat 9 AM - 6 PM sun 11 AM - 4 PM "
"https://www.searshometownstores.com/","https://www.searshometownstores.com/home/ar/harrison/3127","HARRISON - AUTH HOMETOWN","1320 N MAIN ST","HARRISON","AR","72601","US","0003127","(870) 741-5466","<MISSING>","36.243557","-93.114388","mon 8.30 AM - 6 PM tue 8.30 AM - 6 PM wed 8.30 AM - 6 PM thu 8.30 AM - 6 PM fri 8.30 AM - 6 PM sat 9 AM - 6 PM sun 11 AM - 4 PM "
"https://www.searshometownstores.com/","https://www.searshometownstores.com/home/ok/muskogee/4949","MUSKOGEE - AUTH HOMETOWN","2234 E SHAWNEE BYPASS","MUSKOGEE","OK","74403","US","0004949","(918) 684-9089","<MISSING>","35.771326","-95.342253","mon 9 AM - 6 PM tue 9 AM - 6 PM wed 9 AM - 6 PM thu 9 AM - 6 PM fri 9 AM - 6 PM sat 9 AM - 6 PM sun 12 AM - 5 PM "
"https://www.searshometownstores.com/","https://www.searshometownstores.com/home/ar/clarksville/3097","CLARKSVILLE - AUTH HOMETOWN","605 WEST MAIN STREET","CLARKSVILLE","AR","72830","US","0003097","(479) 754-3953","<MISSING>","35.44895","-93.461","mon 8.30 AM - 6 PM tue 8.30 AM - 6 PM wed 8.30 AM - 6 PM thu 8.30 AM - 6 PM fri 8.30 AM - 6 PM sat 9 AM - 6 PM sun 12 AM - 5 PM "
"https://www.searshometownstores.com/","https://www.searshometownstores.com/home/ks/independence/3082","INDEPENDENCE-AUTH HOMETOWN","300 PENN ST","INDEPENDENCE","KS","67301","US","0003082","(620) 331-1818","<MISSING>","37.257476","-95.706452","mon 9 AM - 6 PM tue 9 AM - 6 PM wed 9 AM - 6 PM thu 9 AM - 6 PM fri 9 AM - 6 PM sat 8 AM - 5 PM sun 11 AM - 4 PM "
"https://www.searshometownstores.com/","https://www.searshometownstores.com/home/mo/nevada/3001","NEVADA - AUTH HOMETOWN","1909 E AUSTIN BLVD","NEVADA","MO","64772","US","0003001","(417) 667-4499","<MISSING>","37.836609","-94.33686","mon 9 AM - 6:30 PM tue 9 AM - 6:30 PM wed 9 AM - 6:30 PM thu 9 AM - 6:30 PM fri 9 AM - 6:30 PM sat 9 AM - 6 PM sun 11 AM - 4 PM "
"https://www.searshometownstores.com/","https://www.searshometownstores.com/home/mo/ava/3799","AVA  AUTH HOMETOWN STORE","1101 NW 12TH AVE","AVA","MO","65608","US","0003799","(417) 683-0190","<MISSING>","36.961214","-92.671163","mon 7:30 AM - 5:30 PM tue 7:30 AM - 5:30 PM wed 7:30 AM - 5:30 PM thu 7:30 AM - 5:30 PM fri 7:30 AM - 5:30 PM sat 8 AM - 2 PM sun 12 AM - 5 PM "
"https://www.searshometownstores.com/","https://www.searshometownstores.com/home/ok/poteau/5920","POTEAU-BUDDY'S","806 S. BRAODWAY ST","POTEAU","OK","74953","US","0005920","() -","<MISSING>","35.050235","-94.628124","mon 10 AM - 7 PM tue 10 AM - 7 PM wed 10 AM - 7 PM thu 10 AM - 7 PM fri 10 AM - 7 PM sat 9 AM - 6 PM sun 10 AM - 7 PM "
"https://www.searshometownstores.com/","https://www.searshometownstores.com/home/tx/pharr/1629","SEARS APPLIANCE & MATTRESS","500 N JACKSON RD B-1","PHARR","TX","78577","US","0001629","(956) 402-3106","<MISSING>","26.2025783","-98.20165000000003","mon 10 AM - 8 PM tue 10 AM - 8 PM wed 10 AM - 8 PM thu 10 AM - 8 PM fri 10 AM - 8 PM sat 9 AM - 7 PM sun 10 AM - 6 PM "
"https://www.searshometownstores.com/","https://www.searshometownstores.com/home/oh/middlefield/3800","HARRINGTON SQ","15561 W HIGH ST","MIDDLEFIELD","OH","44062","US","0003800","(440) 632-6363","<MISSING>","41.462341","-81.079155","mon 9 AM - 6 PM tue 9 AM - 6 PM wed 9 AM - 6 PM thu 9 AM - 6 PM fri 9 AM - 6 PM sat 9 AM - 6 PM sun 11 AM - 4 PM "
"https://www.searshometownstores.com/","https://www.searshometownstores.com/home/tx/san antonio/7101","SAN ANTONIO - AUTH HOMETOWN","6218 WOODGLEN","SAN ANTONIO","TX","78244","US","0007101","(210) 686-5594","<MISSING>","29.482987","-98.350295","mon 9 AM - 7 PM tue 9 AM - 7 PM wed 9 AM - 7 PM thu 9 AM - 7 PM fri 9 AM - 7 PM sat 9 AM - 7 PM sun 11 AM - 4 PM "
"https://www.searshometownstores.com/","https://www.searshometownstores.com/home/tx/pleasanton/3756","PLEASANTON - AUTH HOMETOWN","118 S MAIN ST","PLEASANTON","TX","78064","US","0003756","(830) 569-2143","<MISSING>","28.958928","-98.484089","mon 9 AM - 6 PM tue 9 AM - 6 PM wed 9 AM - 6 PM thu 9 AM - 6 PM fri 9 AM - 6 PM sat 9 AM - 6 PM sun 12 AM - 5 PM "
"https://www.searshometownstores.com/","https://www.searshometownstores.com/home/tx/kerrville/3358","KERRVILLE - AUTH HOMETOWN","345 JUNCTION HWY","KERRVILLE","TX","78028","US","0003358","(830) 257-7221","<MISSING>","30.054461","-99.151665","mon 9 AM - 6 PM tue 9 AM - 6 PM wed 9 AM - 6 PM thu 9 AM - 6 PM fri 9 AM - 6 PM sat 9 AM - 6 PM sun 12 AM - 6 PM "
"https://www.searshometownstores.com/","https://www.searshometownstores.com/home/tx/uvalde/3536","UVALDE - AUTH HOMETOWN","2344 E MAIN ST","UVALDE","TX","78801","US","0003536","(830) 278-9555","<MISSING>","29.220247","-99.764641","mon 9:30 AM - 7 PM tue 9:30 AM - 7 PM wed 9:30 AM - 7 PM thu 9:30 AM - 7 PM fri 9:30 AM - 7 PM sat 9 AM - 6 PM sun 12 AM - 6 PM "
"https://www.searshometownstores.com/","https://www.searshometownstores.com/home/nc/henderson/3156","HENDERSON - AUTH HOMETOWN","1535 DABNEY DR","HENDERSON","NC","27536","US","0003156","(252) 438-6153","<MISSING>","36.332588","-78.435936","mon 9 AM - 6 PM tue 9 AM - 6 PM wed 9 AM - 6 PM thu 9 AM - 6 PM fri 9 AM - 6 PM sat 9 AM - 6 PM sun 11 AM - 4 PM "
"https://www.searshometownstores.com/","https://www.searshometownstores.com/home/nc/knightdale/2004","SEARS HOME APPLIANCE SHOWROOM","2001 WIDEWATERS PKWY STE A","KNIGHTDALE","NC","27545","US","0002004","(919) 217-0807","<MISSING>","35.791249","-78.504075","mon 10 AM - 7 PM tue 10 AM - 7 PM wed 10 AM - 7 PM thu 10 AM - 7 PM fri 10 AM - 7 PM sat 10 AM - 9 PM sun 11 AM - 7 PM "
"https://www.searshometownstores.com/","https://www.searshometownstores.com/home/nc/sanford/3206","KENDALL SHOPPING CTR","2534 LEE AVE","SANFORD","NC","27332","US","0003206","(919) 776-4311","<MISSING>","35.456223","-79.15229","mon 9 AM - 6 PM tue 9 AM - 6 PM wed 9 AM - 6 PM thu 9 AM - 6 PM fri 9 AM - 6 PM sat 9 AM - 6 PM sun 11 AM - 4 PM "
"https://www.searshometownstores.com/","https://www.searshometownstores.com/home/nc/dunn/3226","DUNN - AUTH HOMETOWN","1002 W. CUMBERLAND STREET","DUNN","NC","28334","US","0003226","(910) 892-7101","<MISSING>","35.312401","-78.620224","mon 9 AM - 6 PM tue 9 AM - 6 PM wed 9 AM - 6 PM thu 9 AM - 6 PM fri 9 AM - 6 PM sat 9 AM - 6 PM sun 12 AM - 6 PM "
"https://www.searshometownstores.com/","https://www.searshometownstores.com/home/mi/mt pleasant/3540","MT. PLEASANT -AUTH HOMETOWN","1400 S MISSION ST","MT PLEASANT","MI","48858","US","0003540","(989) 775-8828","<MISSING>","43.58901","-84.767459","mon 9 AM - 6 PM tue 9 AM - 6 PM wed 9 AM - 6 PM thu 9 AM - 6 PM fri 9 AM - 6 PM sat 9 AM - 6 PM sun 11 AM - 4 PM "
"https://www.searshometownstores.com/","https://www.searshometownstores.com/home/ks/winfield/3628","WINFIELD - AUTH HOMETOWN","912 MAIN ST","WINFIELD","KS","67156","US","0003628","(620) 221-1200","<MISSING>","37.240032","-96.996704","mon 8.30 AM - 5:30 PM tue 8.30 AM - 5:30 PM wed 8.30 AM - 5:30 PM thu 8.30 AM - 5:30 PM fri 8.30 AM - 5:30 PM sat 8.30 AM - 5:30 PM sun 12 AM - 5 PM "
"https://www.searshometownstores.com/","https://www.searshometownstores.com/home/ok/ponca city/3457","PONCA CITY - AUTH HOMETOWN","412 E HARTFORD AVE","PONCA CITY","OK","74601","US","0003457","(580) 762-1691","<MISSING>","36.724098","-97.079285","mon 9 AM - 6 PM tue 9 AM - 6 PM wed 9 AM - 6 PM thu 9 AM - 6 PM fri 9 AM - 6 PM sat 9 AM - 6 PM sun 11 AM - 4 PM "
"https://www.searshometownstores.com/","https://www.searshometownstores.com/home/ks/newton/3351","NEWTON -AUTH HOMETOWN","505 N POPLAR ST","NEWTON","KS","67114","US","0003351","(316) 283-3100","<MISSING>","38.047552","-97.347119","mon 9 AM - 6 PM tue 9 AM - 6 PM wed 9 AM - 6 PM thu 9 AM - 6 PM fri 9 AM - 6 PM sat 9 AM - 6 PM sun 11 AM - 4 PM "
"https://www.searshometownstores.com/","https://www.searshometownstores.com/home/ia/fairfield/4899","FAIRFIELD - AUTH HOMETOWN","1301 WEST BURLINGTON AVE","FAIRFIELD","IA","52556","US","0004899","(641) 472-0034","<MISSING>","41.006566","-91.978387","mon 9 AM - 6 PM tue 9 AM - 6 PM wed 9 AM - 6 PM thu 9 AM - 6 PM fri 9 AM - 6 PM sat 9 AM - 6 PM sun 11 AM - 4 PM "
"https://www.searshometownstores.com/","https://www.searshometownstores.com/home/ia/oskaloosa/3030","OSKALOOSA - AUTH HOMETOWN","211 HWY 432","OSKALOOSA","IA","52577","US","0003030","(641) 672-1000","<MISSING>","41.296432","-92.665825","mon 9 AM - 6 PM tue 9 AM - 6 PM wed 9 AM - 6 PM thu 9 AM - 6 PM fri 9 AM - 6 PM sat 9 AM - 6 PM sun 12 AM - 5 PM "
"https://www.searshometownstores.com/","https://www.searshometownstores.com/home/ia/marshalltown/3268","MARSHALLTOWN -AUTH HOMETOWN","507 IOWA AVE W","MARSHALLTOWN","IA","50158","US","0003268","(641) 752-8888","<MISSING>","42.007099","-92.920341","mon 9 AM - 6:30 PM tue 9 AM - 6:30 PM wed 9 AM - 6:30 PM thu 9 AM - 6:30 PM fri 9 AM - 6:30 PM sat 9 AM - 6 PM sun 12 AM - 5 PM "
"https://www.searshometownstores.com/","https://www.searshometownstores.com/home/ca/truckee/2169","TRUCKEE - AUTH HOMETOWN","12047 DONNER PASS ROAD STE A3","TRUCKEE","CA","96161","US","0002169","(530) 550-0110","<MISSING>","39.325162","-120.224121","mon 9 AM - 6 PM tue 9 AM - 6 PM wed 9 AM - 6 PM thu 9 AM - 6 PM fri 9 AM - 6 PM sat 9 AM - 6 PM sun 11 AM - 4 PM "
"https://www.searshometownstores.com/","https://www.searshometownstores.com/home/nv/fallon/3859","FALLON - AUTH HOMETOWN","1430 W WILLIAMS AVE","FALLON","NV","89406","US","0003859","(775) 423-2629","<MISSING>","39.475445","-118.79349","mon 9 AM - 6 PM tue 9 AM - 6 PM wed 9 AM - 6 PM thu 9 AM - 6 PM fri 9 AM - 6 PM sat 9 AM - 6 PM sun 11 AM - 4 PM "
"https://www.searshometownstores.com/","https://www.searshometownstores.com/home/ca/sonora/3159","SONORA - AUTH HOMETOWN","14691 MONO WAY","SONORA","CA","95370","US","0003159","(209) 532-3196","<MISSING>","37.982449","-120.29942","mon 9 AM - 6 PM tue 9 AM - 6 PM wed 9 AM - 6 PM thu 9 AM - 6 PM fri 9 AM - 6 PM sat 9 AM - 6 PM sun 11 AM - 4 PM "
"https://www.searshometownstores.com/","https://www.searshometownstores.com/home/ca/grass valley/3129","GRASS VALLEY -AUTH HOMETOWN","129 IDAHO MARYLAND RD","GRASS VALLEY","CA","95945","US","0003129","(530) 273-9511","<MISSING>","39.221882","-121.05289","mon 9:30 AM - 7 PM tue 9:30 AM - 7 PM wed 9:30 AM - 7 PM thu 9:30 AM - 7 PM fri 9:30 AM - 7 PM sat 9 AM - 6 PM sun 11 AM - 4 PM "
"https://www.searshometownstores.com/","https://www.searshometownstores.com/home/ca/auburn/3149","AUBURN - AUTH HOMETOWN","415 GRASS VALLEY HWY","AUBURN","CA","95603","US","0003149","(530) 885-7531","<MISSING>","38.902157","-121.07469","mon 9 AM - 7 PM tue 9 AM - 7 PM wed 9 AM - 7 PM thu 9 AM - 7 PM fri 9 AM - 7 PM sat 9 AM - 6 PM sun 11 AM - 4 PM "
"https://www.searshometownstores.com/","https://www.searshometownstores.com/home/me/farmington/3364","MT BLUE S/C","632 WILTON RD","FARMINGTON","ME","04938","US","0003364","(207) 778-5758","<MISSING>","44.627525","-70.157421","mon 9 AM - 6 PM tue 9 AM - 6 PM wed 9 AM - 6 PM thu 9 AM - 6 PM fri 9 AM - 6 PM sat 9 AM - 6 PM sun 11 AM - 4 PM "
"https://www.searshometownstores.com/","https://www.searshometownstores.com/home/il/waterloo/3820","WATERLOO - AUTH HOMETOWN","1349 JAMIE LN","WATERLOO","IL","62298","US","0003820","(618) 939-5552","<MISSING>","38.367306","-90.158234","mon 9 AM - 6 PM tue 9 AM - 6 PM wed 9 AM - 6 PM thu 9 AM - 6 PM fri 9 AM - 6 PM sat 9 AM - 6 PM sun 11 AM - 4 PM "
"https://www.searshometownstores.com/","https://www.searshometownstores.com/home/mo/washington/3372","WASHINGTON - AUTH HOMETOWN","1048 WASHINGTON SQ","WASHINGTON","MO","63090","US","0003372","(636) 239-2751","<MISSING>","38.536694","-91.003059","mon 9 AM - 7 PM tue 9 AM - 7 PM wed 9 AM - 7 PM thu 9 AM - 7 PM fri 9 AM - 7 PM sat 9 AM - 6 PM sun 11 AM - 4 PM "
"https://www.searshometownstores.com/","https://www.searshometownstores.com/home/mo/farmington/3362","FARMINGTON - AUTH HOMETOWN","606 WALMART DR","FARMINGTON","MO","63640","US","0003362","(573) 760-1502","<MISSING>","37.791611","-90.437057","mon 9 AM - 7 PM tue 9 AM - 7 PM wed 9 AM - 7 PM thu 9 AM - 7 PM fri 9 AM - 7 PM sat 9 AM - 6 PM sun 12 AM - 5 PM "
"https://www.searshometownstores.com/","https://www.searshometownstores.com/home/mo/mexico/3442","MEXICO - AUTH HOMETOWN","2988 S CLARK ST","MEXICO","MO","65265","US","0003442","(573) 581-0058","<MISSING>","39.157597","-91.886314","mon 9 AM - 6 PM tue 9 AM - 6 PM wed 9 AM - 6 PM thu 9 AM - 6 PM fri 9 AM - 6 PM sat 9 AM - 6 PM sun 11 AM - 4 PM "
"https://www.searshometownstores.com/","https://www.searshometownstores.com/home/mt/hamilton/3932","HAMILTON - AUTH HOMETOWN","1704 N 1ST ST STE A","HAMILTON","MT","59840","US","0003932","(406) 375-9090","<MISSING>","46.268475","-114.15678","mon 9 AM - 6 PM tue 9 AM - 6 PM wed 9 AM - 6 PM thu 9 AM - 6 PM fri 9 AM - 6 PM sat 9 AM - 6 PM sun 11 AM - 4 PM "
"https://www.searshometownstores.com/","https://www.searshometownstores.com/home/ca/selma/3354","SELMA  AUTH HOMETOWN STORE","2051 HIGH STREET","SELMA","CA","93662","US","0003354","(559) 257-4091","<MISSING>","36.569297","-119.613045","mon 9 AM - 6 PM tue 9 AM - 6 PM wed 9 AM - 6 PM thu 9 AM - 6 PM fri 9 AM - 6 PM sat 9 AM - 6 PM sun 12 AM - 12 PM "
"https://www.searshometownstores.com/","https://www.searshometownstores.com/home/ca/oakhurst/3908","OAKHURST - AUTH HOMETOWN","40322 JUNCTION DR","OAKHURST","CA","93644","US","0003908","(559) 683-0007","<MISSING>","37.333942","-119.65715","mon 9 AM - 6 PM tue 9 AM - 6 PM wed 9 AM - 6 PM thu 9 AM - 6 PM fri 9 AM - 6 PM sat 9 AM - 6 PM sun 11 AM - 4 PM "
"https://www.searshometownstores.com/","https://www.searshometownstores.com/home/ca/bishop/3678","BISHOP - AUTH HOMETOWN","1361 ROCKING W DRIVE","BISHOP","CA","93514","US","0003678","(760) 872-2062","<MISSING>","37.379204","-118.4193","mon 9 AM - 6 PM tue 9 AM - 6 PM wed 9 AM - 6 PM thu 9 AM - 6 PM fri 9 AM - 6 PM sat 9 AM - 6 PM sun 11 AM - 4 PM "
"https://www.searshometownstores.com/","https://www.searshometownstores.com/home/ia/mason city/3284","MASON CITY - AUTH HTS","507 4TH ST SW","MASON CITY","IA","50401","US","0003284","(641) 512-0809","<MISSING>","43.147954","-93.209529","mon 9 AM - 6 PM tue 9 AM - 6 PM wed 9 AM - 6 PM thu 9 AM - 6 PM fri 9 AM - 6 PM sat 9 AM - 6 PM sun 11 AM - 4 PM "
"https://www.searshometownstores.com/","https://www.searshometownstores.com/home/mi/escanaba/3231","ESCANABA - AUTH HOMETOWN","322 N LINCOLN RD","ESCANABA","MI","49829","US","0003231","(906) 233-1709","<MISSING>","45.748188","-87.079269","mon 9 AM - 6 PM tue 9 AM - 6 PM wed 9 AM - 6 PM thu 9 AM - 6 PM fri 9 AM - 6 PM sat 9 AM - 6 PM sun 11 AM - 4 PM "
"https://www.searshometownstores.com/","https://www.searshometownstores.com/home/wi/antigo/3993","ANTIGO - AUTH HOMETOWN","445 WI-64","ANTIGO","WI","54409","US","0003993","(715) 627-4407","<MISSING>","45.166077","-89.147751","mon 9:30 AM - 7 PM tue 9:30 AM - 7 PM wed 9:30 AM - 7 PM thu 9:30 AM - 7 PM fri 9:30 AM - 7 PM sat 9:30 AM - 7 PM sun 11 AM - 4 PM "
"https://www.searshometownstores.com/","https://www.searshometownstores.com/home/wi/waupaca/3042","WAUPACA - AUTH HOMETOWN","820 W FULTON ST","WAUPACA","WI","54981","US","0003042","(715) 256-9946","<MISSING>","44.357227","-89.103981","mon 9 AM - 6 PM tue 9 AM - 6 PM wed 9 AM - 6 PM thu 9 AM - 6 PM fri 9 AM - 6 PM sat 9 AM - 6 PM sun 11 AM - 4 PM "
"https://www.searshometownstores.com/","https://www.searshometownstores.com/home/wi/reedsburg/7952","REEDSBURG - AUTH HOMETOWN","55 VIKING DRIVE","REEDSBURG","WI","53959","US","0007952","(608) 768-0047","<MISSING>","43.532763","-89.984788","mon 9 AM - 6 PM tue 9 AM - 6 PM wed 9 AM - 6 PM thu 9 AM - 6 PM fri 9 AM - 6 PM sat 9 AM - 6 PM sun 11 AM - 4 PM "
"https://www.searshometownstores.com/","https://www.searshometownstores.com/home/ms/grenada/3367","GRENADA - AUTH HOMETOWN","2231 SOUTH COMMERCE ST.","GRENADA","MS","38901","US","0003367","(662) 226-1551","<MISSING>","33.769052","-89.810889","mon 9 AM - 6 PM tue 9 AM - 6 PM wed 9 AM - 6 PM thu 9 AM - 6 PM fri 9 AM - 6 PM sat 9 AM - 6 PM sun 12 AM - 5 PM "
"https://www.searshometownstores.com/","https://www.searshometownstores.com/home/ny/oneonta/3203","ONEONTA - AUTH HOMETOWN","207 RIVER STREET","ONEONTA","NY","13820","US","0003203","(607) 432-3100","<MISSING>","42.444175","-75.084766","mon 9 AM - 6 PM tue 9 AM - 6 PM wed 9 AM - 6 PM thu 9 AM - 6 PM fri 9 AM - 6 PM sat 9 AM - 6 PM sun 11 AM - 4 PM "
"https://www.searshometownstores.com/","https://www.searshometownstores.com/home/ny/cobleskill/3694","COBLESKILL - AUTH HOMETOWN","2395 STATE RD 7","COBLESKILL","NY","12043","US","0003694","(518) 234-2669","<MISSING>","42.681865","-74.444231","mon 9:30 AM - 7 PM tue 9:30 AM - 7 PM wed 9:30 AM - 7 PM thu 9:30 AM - 7 PM fri 9:30 AM - 7 PM sat 9 AM - 6 PM sun 12 AM - 5 PM "
"https://www.searshometownstores.com/","https://www.searshometownstores.com/home/in/greenfield/7433","GREENFIELD - AUTH HOMETOWN","1240 N. STATE ST","GREENFIELD","IN","46140","US","0007433","(317) 467-1990","<MISSING>","39.784217","-85.787431","mon 9:30 AM - 7 PM tue 9:30 AM - 7 PM wed 9:30 AM - 7 PM thu 9:30 AM - 7 PM fri 9:30 AM - 7 PM sat 9 AM - 6 PM sun 11 AM - 4 PM "
"https://www.searshometownstores.com/","https://www.searshometownstores.com/home/vt/morrisville/3533","NORTHGATE PLZ","65 NORTHGATE PLAZA","MORRISVILLE","VT","05661","US","0003533","(802) 888-4333","<MISSING>","44.57571","-72.59251","mon 9 AM - 6 PM tue 9 AM - 6 PM wed 9 AM - 6 PM thu 9 AM - 6 PM fri 9 AM - 6 PM sat 9 AM - 6 PM sun 11 AM - 4 PM "
"https://www.searshometownstores.com/","https://www.searshometownstores.com/home/vt/barre/3503","BARRE - AUTH HOMETOWN","1598 US ROUTE 302 BERLIN","BARRE","VT","05641","US","0003503","(802) 479-2541","<MISSING>","44.230953","-72.553856","mon 9 AM - 6 PM tue 9 AM - 8:30 PM wed 9 AM - 6 PM thu 9 AM - 6 PM fri 9 AM - 6 PM sat 9 AM - 5 PM sun 11 AM - 4 PM "
"https://www.searshometownstores.com/","https://www.searshometownstores.com/home/vt/derby/3513","DERBY - AUTH HOMETOWN","3609 US ROUTE 5","DERBY","VT","05829","US","0003513","(802) 766-2411","<MISSING>","44.9516","-72.1092","mon 9:30 AM - 7 PM tue 9:30 AM - 7 PM wed 9:30 AM - 7 PM thu 9:30 AM - 7 PM fri 9:30 AM - 7 PM sat 9 AM - 6 PM sun 11 AM - 4 PM "
"https://www.searshometownstores.com/","https://www.searshometownstores.com/home/az/bullhead city/3256","BULLHEAD CITY-AUTH HOMETOWN","2580 HIGHWAY 95 SUITE 114","BULLHEAD CITY","AZ","86442","US","0003256","(928) 704-1201","<MISSING>","35.09305","-114.59737","mon 9 AM - 6 PM tue 9 AM - 6 PM wed 9 AM - 6 PM thu 9 AM - 6 PM fri 9 AM - 6 PM sat 9 AM - 6 PM sun 11 AM - 4 PM "
"https://www.searshometownstores.com/","https://www.searshometownstores.com/home/nv/mesquite/2178","MESQUITE - AUTH HOMETOWN","62 W MESQUITE BLVD","MESQUITE","NV","89027","US","0002178","(702) 346-8131","<MISSING>","36.803633","-114.068983","mon 9 AM - 6 PM tue 9 AM - 6 PM wed 9 AM - 6 PM thu 9 AM - 6 PM fri 9 AM - 6 PM sat 9 AM - 6 PM sun 11 AM - 4 PM "
"https://www.searshometownstores.com/","https://www.searshometownstores.com/home/az/kingman/3089","KINGMAN - AUTH HOMETOWN","3155 STOCKTON HILL RD.","KINGMAN","AZ","86401","US","0003089","(928) 753-6281","<MISSING>","35.21602","-114.03596","mon 9 AM - 6 PM tue 9 AM - 6 PM wed 9 AM - 6 PM thu 9 AM - 6 PM fri 9 AM - 6 PM sat 9 AM - 6 PM sun 11 AM - 4 PM "
"https://www.searshometownstores.com/","https://www.searshometownstores.com/home/fl/arcadia/7825","ARCADIA - AUTH HOMETOWN","1094 SOUTH EAST VERMONT AVE","ARCADIA","FL","34266","US","0007825","(863) 494-4001","<MISSING>","27.208208","-81.841294","mon 9 AM - 7 PM tue 9 AM - 7 PM wed 9 AM - 7 PM thu 9 AM - 6 PM fri 9 AM - 6 PM sat 9 AM - 6 PM sun 12 AM - 5 PM "
"https://www.searshometownstores.com/","https://www.searshometownstores.com/home/fl/summerfield/3150","SUMMERFIELD - AUTH HOMETOWN","16750 SOUTH HWY 441","SUMMERFIELD","FL","34491","US","0003150","(352) 245-6250","<MISSING>","28.975534","-81.98143","mon 9 AM - 6 PM tue 9 AM - 6 PM wed 9 AM - 6 PM thu 9 AM - 6 PM fri 9 AM - 6 PM sat 9 AM - 6 PM sun 12 AM - 5 PM "
"https://www.searshometownstores.com/","https://www.searshometownstores.com/home/fl/dunnellon/7378","DUNNELLON - AUTH HOMETOWN","11223 NORTH WILLIAMS ST STE M","DUNNELLON","FL","34432","US","0007378","(352) 522-0861","<MISSING>","29.060157","-82.45326","mon 9 AM - 6 PM tue 9 AM - 6 PM wed 9 AM - 6 PM thu 9 AM - 6 PM fri 9 AM - 6 PM sat 9 AM - 6 PM sun 11 AM - 4 PM "
"https://www.searshometownstores.com/","https://www.searshometownstores.com/home/fl/englewood/3975","ENGLEWOOD SQ S/C","455 S INDIANA AVE","ENGLEWOOD","FL","34223","US","0003975","(941) 473-7777","<MISSING>","26.953934","-82.353287","mon 9 AM - 6 PM tue 9 AM - 6 PM wed 9 AM - 6 PM thu 9 AM - 6 PM fri 9 AM - 6 PM sat 9 AM - 6 PM sun 12 AM - 4 PM "
"https://www.searshometownstores.com/","https://www.searshometownstores.com/home/mo/clinton/3902","CLINTON - AUTH HOMETOWN","743 E GAINES DR","CLINTON","MO","64735","US","0003902","(660) 885-7117","<MISSING>","38.388638","-93.76545","mon 9 AM - 6 PM tue 9 AM - 6 PM wed 9 AM - 6 PM thu 9 AM - 6 PM fri 9 AM - 6 PM sat 9 AM - 6 PM sun 11 AM - 4 PM "
"https://www.searshometownstores.com/","https://www.searshometownstores.com/home/co/longmont/4843","LONGMONT-HTS SERVICES","700 KEN PRATT BLVD STE K2-B","LONGMONT","CO","80501","US","0004843","(720) 494-1701","<MISSING>","40.074325","-93.597862","mon 9:30 AM - 7 PM tue 9:30 AM - 7 PM wed 9:30 AM - 7 PM thu 9:30 AM - 7 PM fri 9:30 AM - 7 PM sat 9 AM - 6 PM sun 12 AM - 5 PM "
"https://www.searshometownstores.com/","https://www.searshometownstores.com/home/wa/ellensburg/3569","ELLENSBURG - AUTH HOMETOWN","505 N PEARL ST","ELLENSBURG","WA","98926","US","0003569","(509) 201-1631","<MISSING>","46.996735","-120.5461","mon 9 AM - 6 PM tue 9 AM - 6 PM wed 9 AM - 6 PM thu 9 AM - 6 PM fri 9 AM - 6 PM sat 9 AM - 6 PM sun 11 AM - 4 PM "
"https://www.searshometownstores.com/","https://www.searshometownstores.com/home/wa/moses lake/3559","MOSES LAKE - AUTH HOMETOWN","312 S DIVISION ST","MOSES LAKE","WA","98837","US","0003559","(509) 765-9141","<MISSING>","47.129841","-119.277752","mon 9 AM - 6 PM tue 9 AM - 6 PM wed 9 AM - 6 PM thu 9 AM - 6 PM fri 9 AM - 6 PM sat 9 AM - 6 PM sun 11 AM - 4 PM "
"https://www.searshometownstores.com/","https://www.searshometownstores.com/home/wa/sunnyside/3088","SUNNYSIDE - AUTH HOMETOWN","1702 GREGORY AVE EXT","SUNNYSIDE","WA","98944","US","0003088","(509) 515-0361","<MISSING>","46.323826","-119.9968","mon 9:30 AM - 7 PM tue 9:30 AM - 7 PM wed 9:30 AM - 7 PM thu 9:30 AM - 7 PM fri 9:30 AM - 7 PM sat 9 AM - 6 PM sun 11 AM - 4 PM "
"https://www.searshometownstores.com/","https://www.searshometownstores.com/home/ok/shawnee/5598","4901 NORTH KICKAPOO ST","SUITE 3001","SHAWNEE","OK","74804","US","0005598","(405) 481-7550","<MISSING>","35.386613","-96.926396","mon 9 AM - 6 PM tue 9 AM - 6 PM wed 9 AM - 6 PM thu 9 AM - 6 PM fri 9 AM - 6 PM sat 9 AM - 6 PM sun 12 AM - 5 PM "
"https://www.searshometownstores.com/","https://www.searshometownstores.com/home/nc/elizabeth cty/3216","ELIZABETH CTY-AUTH HOMETOWN","1503 W EHRINGHAUS ST","ELIZABETH CTY","NC","27909","US","0003216","(252) 335-5435","<MISSING>","36.293186","-76.24514","mon 9 AM - 6 PM tue 9 AM - 6 PM wed 9 AM - 6 PM thu 9 AM - 6 PM fri 9 AM - 6 PM sat 9 AM - 6 PM sun 11 AM - 4 PM "
"https://www.searshometownstores.com/","https://www.searshometownstores.com/home/wa/walla walla/6914","WALLA WALLA - AUTH HOMETOWN","207 E MAIN ST","WALLA WALLA","WA","99362","US","0006914","(509) 525-9884","<MISSING>","46.068865","-118.336344","mon 9:30 AM - 7 PM tue 9:30 AM - 7 PM wed 9:30 AM - 7 PM thu 9:30 AM - 7 PM fri 9:30 AM - 7 PM sat 9 AM - 6 PM sun 11 AM - 4 PM "
"https://www.searshometownstores.com/","https://www.searshometownstores.com/home/or/la grande/3619","LA GRANDE - AUTH HOMETOWN","1700 PORTLAND AVE","LA GRANDE","OR","97850","US","0003619","(541) 963-8451","<MISSING>","45.338078","-118.05653","mon 9 AM - 6:30 PM tue 9 AM - 6:30 PM wed 9 AM - 6:30 PM thu 9 AM - 6:30 PM fri 9 AM - 6:30 PM sat 9 AM - 6 PM sun 11 AM - 4 PM "
"https://www.searshometownstores.com/","https://www.searshometownstores.com/home/ms/brookhaven/3397","BROOKHAVEN - AUTH HOMETOWN","222 HIGHWAY 51 NORTH","BROOKHAVEN","MS","39601","US","0003397","(601) 833-5811","<MISSING>","31.583252","-90.456322","mon 9 AM - 6 PM tue 9 AM - 6 PM wed 9 AM - 6 PM thu 9 AM - 6 PM fri 9 AM - 6 PM sat 9 AM - 6 PM sun 12 AM - 6 PM "
"https://www.searshometownstores.com/","https://www.searshometownstores.com/home/ms/magee/3706","MAGEE - AUTH HOMETOWN","410 PINOLA DR SE","MAGEE","MS","39111","US","0003706","(601) 849-9188","<MISSING>","31.864927","-89.731369","mon 9 AM - 6 PM tue 9 AM - 6 PM wed 9 AM - 6 PM thu 9 AM - 6 PM fri 9 AM - 6 PM sat 9 AM - 6 PM sun 11 AM - 4 PM "
"https://www.searshometownstores.com/","https://www.searshometownstores.com/home/la/bogalusa/3297","BOGALUSA - AUTH HOMETOWN","412 AVENUE B","BOGALUSA","LA","70427","US","0003297","(985) 732-3641","<MISSING>","30.778578","-89.866226","mon 9 AM - 6 PM tue 9 AM - 6 PM wed 9 AM - 6 PM thu 9 AM - 6 PM fri 9 AM - 6 PM sat 9 AM - 6 PM sun 11 AM - 4 PM "
"https://www.searshometownstores.com/","https://www.searshometownstores.com/home/ms/byram/4787","BYRAM - AUTH HOMETOWN","5547 I-55 SOUTH","BYRAM","MS","39272","US","0004787","(769) 251-5033","<MISSING>","32.179621","-90.24486","mon 9 AM - 6 PM tue 9 AM - 6 PM wed 9 AM - 6 PM thu 9 AM - 6 PM fri 9 AM - 6 PM sat 9 AM - 6 PM sun 12 AM - 6 PM "
"https://www.searshometownstores.com/","https://www.searshometownstores.com/home/ms/natchez/3565","SOUTHGATE S/C","31 S SERGEANT PRENTISS DR  3","NATCHEZ","MS","39120","US","0003565","(601) 446-8070","<MISSING>","31.530476","-91.385727","mon 9 AM - 6 PM tue 9 AM - 6 PM wed 9 AM - 6 PM thu 9 AM - 6 PM fri 9 AM - 6 PM sat 9 AM - 6 PM sun 11 AM - 4 PM "
"https://www.searshometownstores.com/","https://www.searshometownstores.com/home/ms/vicksburg/3377","VICKSBURG - AUTH HOMETOWN","2480 I 20 FRONTAGE RD","VICKSBURG","MS","39180","US","0003377","(601) 630-9002","<MISSING>","32.327011","-90.861565","mon 9:30 AM - 7 PM tue 9:30 AM - 7 PM wed 9:30 AM - 7 PM thu 9:30 AM - 7 PM fri 9:30 AM - 7 PM sat 9 AM - 6 PM sun 11:30 AM - 4:30 PM "
"https://www.searshometownstores.com/","https://www.searshometownstores.com/home/ms/waynesboro/1827","WAYNESBORO - AUTH HOMETOWN","1108 A MISSISSIPPI DRIVE","WAYNESBORO","MS","39367","US","0001827","(601) 509-4277","<MISSING>","31.682652","-88.646745","mon 9 AM - 6 PM tue 9 AM - 6 PM wed 9 AM - 6 PM thu 9 AM - 6 PM fri 9 AM - 6 PM sat 9 AM - 6 PM sun 12 AM - 5 PM "
"https://www.searshometownstores.com/","https://www.searshometownstores.com/home/ut/price/3058","PRICE - AUTH HOMETOWN","33 N CARBON AVE","PRICE","UT","84501","US","0003058","(435) 637-4000","<MISSING>","39.60019","-110.811833","mon 9:30 AM - 7 PM tue 9:30 AM - 7 PM wed 9:30 AM - 7 PM thu 9:30 AM - 7 PM fri 9:30 AM - 7 PM sat 9 AM - 6 PM sun 11 AM - 4 PM "
"https://www.searshometownstores.com/","https://www.searshometownstores.com/home/wi/river falls/3391","RIVER FALLS - AUTH HOMETOWN","1660 COMMERCE COURT","RIVER FALLS","WI","54022","US","0003391","(715) 425-2400","<MISSING>","44.876419","-92.624146","mon 9 AM - 6 PM tue 9 AM - 6 PM wed 9 AM - 6 PM thu 9 AM - 6 PM fri 9 AM - 6 PM sat 9 AM - 6 PM sun 11 AM - 4 PM "
"https://www.searshometownstores.com/","https://www.searshometownstores.com/home/wi/menomonie/3182","MENOMONIE - AUTH HOMETOWN","2521 HILS CT STE A","MENOMONIE","WI","54751","US","0003182","(715) 232-8086","<MISSING>","44.912254","-91.932724","mon 9 AM - 6 PM tue 9 AM - 6 PM wed 9 AM - 6 PM thu 9 AM - 6 PM fri 9 AM - 6 PM sat 9 AM - 6 PM sun 11 AM - 4 PM "
"https://www.searshometownstores.com/","https://www.searshometownstores.com/home/wi/chippewa fall/7074","CHIPPEWA FALLS - AUTH HOMET","301 W PRAIRIE VIEW RD","CHIPPEWA FALL","WI","54729","US","0007074","(715) 861-7671","<MISSING>","44.713632","-91.391875","mon 9 AM - 6 PM tue 9 AM - 6 PM wed 9 AM - 6 PM thu 9 AM - 6 PM fri 9 AM - 6 PM sat 9 AM - 6 PM sun 11 AM - 4 PM "
"https://www.searshometownstores.com/","https://www.searshometownstores.com/home/ca/yreka/3998","YREKA - AUTH HOMETOWN","827 S MAIN ST","YREKA","CA","96097","US","0003998","(530) 842-4800","<MISSING>","41.725452","-122.63733","mon 9 AM - 6 PM tue 9 AM - 6 PM wed 9 AM - 6 PM thu 9 AM - 6 PM fri 9 AM - 6 PM sat 9 AM - 6 PM sun 11 AM - 4 PM "
"https://www.searshometownstores.com/","https://www.searshometownstores.com/home/or/harbor/3489","HARBOR SHOPPING CENTER","97900 S/C AVE","HARBOR","OR","97415","US","0003489","(541) 469-2116","<MISSING>","42.05405","-124.2638","mon 9 AM - 6 PM tue 9 AM - 6 PM wed 9 AM - 6 PM thu 9 AM - 6 PM fri 9 AM - 6 PM sat 9 AM - 6 PM sun 11 AM - 4 PM "
"https://www.searshometownstores.com/","https://www.searshometownstores.com/home/la/luling/7954","LULING - AUTH HOMETOWN","12715 HIGHWAY 90 STE 160B","LULING","LA","70070","US","0007954","(985) 308-1555","<MISSING>","29.907459","-90.367714","mon 9 AM - 6 PM tue 9 AM - 6 PM wed 9 AM - 6 PM thu 9 AM - 6 PM fri 9 AM - 6 PM sat 9 AM - 6 PM sun 11 AM - 4 PM "
"https://www.searshometownstores.com/","https://www.searshometownstores.com/home/wa/cheney/3448","CHENEY - AUTH HOMETOWN","10 WEST 1ST STREET","CHENEY","WA","99004","US","0003448","(509) 235-9229","<MISSING>","47.484048","-117.57947","mon 9 AM - 6 PM tue 9 AM - 6 PM wed 9 AM - 6 PM thu 9 AM - 6 PM fri 9 AM - 6 PM sat 9 AM - 6 PM sun 11 AM - 4 PM "
"https://www.searshometownstores.com/","https://www.searshometownstores.com/home/wa/colville/3019","COLVILLE - AUTH HOMETOWN","702 N HWY","COLVILLE","WA","99114","US","0003019","(509) 685-1880","<MISSING>","48.538029","-117.90495","mon 9 AM - 6 PM tue 9 AM - 6 PM wed 9 AM - 6 PM thu 9 AM - 6 PM fri 9 AM - 6 PM sat 9 AM - 6 PM sun 11 AM - 4 PM "
"https://www.searshometownstores.com/","https://www.searshometownstores.com/home/ca/susanville/3698","SUSANVILLE - AUTH HOMETOWN","911 MAIN STREET","SUSANVILLE","CA","96130","US","0003698","(530) 257-5171","<MISSING>","40.417816","-120.65776","mon 9 AM - 6 PM tue 9 AM - 6 PM wed 9 AM - 6 PM thu 9 AM - 6 PM fri 9 AM - 6 PM sat 9 AM - 6 PM sun 11 AM - 4 PM "
"https://www.searshometownstores.com/","https://www.searshometownstores.com/home/tx/sweetwater/3296","SWEETWATER - AUTH HOMETOWN","604 E BROADWAY ST","SWEETWATER","TX","79556","US","0003296","(325) 235-8099","<MISSING>","32.472679","-100.40262","mon 9 AM - 6 PM tue 9 AM - 6 PM wed 9 AM - 6 PM thu 9 AM - 6 PM fri 9 AM - 6 PM sat 9 AM - 6 PM sun 12 AM - 6 PM "
"https://www.searshometownstores.com/","https://www.searshometownstores.com/home/wi/sparta/3562","SPARTA - AUTH HOMETOWN","520 S BLACK RIVER ST","SPARTA","WI","54656","US","0003562","(608) 269-0433","<MISSING>","43.940086","-90.820755","mon 9 AM - 6 PM tue 9 AM - 6 PM wed 9 AM - 6 PM thu 9 AM - 6 PM fri 9 AM - 6 PM sat 9 AM - 6 PM sun 11 AM - 4 PM "
"https://www.searshometownstores.com/","https://www.searshometownstores.com/home/wi/tomah/7270","TOMAH - AUTH HOMETOWN","1114 N SUPERIOR AVE","TOMAH","WI","54660","US","0007270","(608) 372-7327","<MISSING>","44.002059","-90.50519","mon 9 AM - 6 PM tue 9 AM - 6 PM wed 9 AM - 6 PM thu 9 AM - 6 PM fri 9 AM - 6 PM sat 9 AM - 6 PM sun 11 AM - 4 PM "
"https://www.searshometownstores.com/","https://www.searshometownstores.com/home/hi/kailua kona/9248","HALE HANA CENTER","74-5583 LUHIA ST BAY B7","KAILUA KONA","HI","96740","US","0009248","(808) 329-1100","<MISSING>","19.641","-155.996","mon 9:30 AM - 7 PM tue 9:30 AM - 7 PM wed 9:30 AM - 7 PM thu 9:30 AM - 7 PM fri 9:30 AM - 7 PM sat 9:30 AM - 7 PM sun 10 AM - 4 PM "
"https://www.searshometownstores.com/","https://www.searshometownstores.com/home/nc/aberdeen/3166","TOWN & COUNTRY S/C","1377 N SANDHILLS BLVD","ABERDEEN","NC","28315","US","0003166","(910) 944-2313","<MISSING>","35.149776","-79.41851","mon 9 AM - 6 PM tue 9 AM - 6 PM wed 9 AM - 6:30 PM thu 9 AM - 6 PM fri 9 AM - 6 PM sat 9 AM - 6 PM sun 11 AM - 4 PM "
"https://www.searshometownstores.com/","https://www.searshometownstores.com/home/sc/lake city/3996","LAKE CITY - AUTH HOMETOWN","404 W MAIN ST","LAKE CITY","SC","29560","US","0003996","(843) 394-1720","<MISSING>","33.877888","-79.768059","mon 9 AM - 6 PM tue 9 AM - 6 PM wed 9 AM - 6 PM thu 9 AM - 6 PM fri 9 AM - 6 PM sat 9 AM - 6 PM sun 12 AM - 5 PM "
"https://www.searshometownstores.com/","https://www.searshometownstores.com/home/co/ft collins/1467","SEARS APPLIANCE & MATTRESS","3400 S COLLEGE AVENUE","FT COLLINS","CO","80525","US","0001467","(970) 297-2770","<MISSING>","40.54099","-105.07649","mon 10 AM - 7 PM tue 10 AM - 7 PM wed 10 AM - 7 PM thu 10 AM - 7 PM fri 10 AM - 7 PM sat 9 AM - 6 PM sun 10 AM - 6 PM "
"https://www.searshometownstores.com/","https://www.searshometownstores.com/home/wy/laramie/3198","STEAMBOAT SPGS-AUTH HOMETWN","416 S. 3RD ST","LARAMIE","WY","82070","US","0003198","(970) 879-4604","<MISSING>","40.460712","-106.822083","mon 9 AM - 6 PM tue 9 AM - 6 PM wed 9 AM - 6 PM thu 9 AM - 6 PM fri 9 AM - 6 PM sat 9 AM - 6 PM sun 11 AM - 4 PM "
"https://www.searshometownstores.com/","https://www.searshometownstores.com/home/co/fort morgan/3500","FT MORGAN - AUTH HOMETOWN","17364 US HIGHWAY 34","FORT MORGAN","CO","80701","US","0003500","(970) 867-5200","<MISSING>","40.248481","-103.796686","mon 9 AM - 6 PM tue 9 AM - 6 PM wed 9 AM - 6 PM thu 9 AM - 6 PM fri 9 AM - 6 PM sat 9 AM - 6 PM sun 11 AM - 4 PM "
"https://www.searshometownstores.com/","https://www.searshometownstores.com/home/co/canon city/3228","CANON CITY - AUTH HOMETOWN","1700 RAINBOW DR","CANON CITY","CO","81212","US","0003228","(719) 275-0659","<MISSING>","38.446625","-105.22422","mon 9 AM - 6 PM tue 9 AM - 6 PM wed 9 AM - 6 PM thu 9 AM - 6 PM fri 9 AM - 6 PM sat 9 AM - 6 PM sun 11 AM - 4 PM "
"https://www.searshometownstores.com/","https://www.searshometownstores.com/home/mi/houghton/3301","HOUGHTON - AUTH HOMETOWN","47420 STATE HWY M26","HOUGHTON","MI","49931","US","0003301","(906) 523-5759","<MISSING>","47.176308","-88.532937","mon 9:30 AM - 7 PM tue 9:30 AM - 7 PM wed 9:30 AM - 7 PM thu 9:30 AM - 7 PM fri 9:30 AM - 7 PM sat 9:30 AM - 6 PM sun 11 AM - 4 PM "
"https://www.searshometownstores.com/","https://www.searshometownstores.com/home/ga/moultrie/3925","SUNSET PLZ MALL","2417 S MAIN ST","MOULTRIE","GA","31768","US","0003925","(229) 985-4440","<MISSING>","31.060567","-83.954086","mon 9 AM - 6 PM tue 9 AM - 6 PM wed 9 AM - 6 PM thu 9 AM - 6 PM fri 9 AM - 6 PM sat 9 AM - 6 PM sun 12 AM - 6 PM "
"https://www.searshometownstores.com/","https://www.searshometownstores.com/home/al/enterprise/4242","DOTHAN -AUTH HOMETOWN STORE","621 BOLL WEEVIL CIR. SUITE 27","ENTERPRISE","AL","36330","US","0004242","(334) 475-4008","<MISSING>","31.227741","-85.429375","mon 9 AM - 6 PM tue 9 AM - 6 PM wed 9 AM - 6 PM thu 9 AM - 6 PM fri 9 AM - 6 PM sat 9 AM - 6 PM sun 11 AM - 4 PM "
"https://www.searshometownstores.com/","https://www.searshometownstores.com/home/az/show low/3238","PINEVIEW MALL","4551 S WHITE MOUNTAIN RD # 3","SHOW LOW","AZ","85901","US","0003238","(928) 537-5578","<MISSING>","34.195606","-110.01579","mon 9 AM - 6 PM tue 9 AM - 6 PM wed 9 AM - 6 PM thu 9 AM - 6 PM fri 9 AM - 6 PM sat 9 AM - 6 PM sun 12 AM - 6 PM "
"https://www.searshometownstores.com/","https://www.searshometownstores.com/home/nm/silver city/3329","SILVER CITY - AUTH HOMETOWN","1310 SILVER HEIGHTS BLVD","SILVER CITY","NM","88061","US","0003329","(575) 538-5328","<MISSING>","32.784605","-108.262486","mon 9 AM - 6 PM tue 9 AM - 6 PM wed 9 AM - 6 PM thu 9 AM - 6 PM fri 9 AM - 6 PM sat 9 AM - 6 PM sun 11 AM - 4 PM "
"https://www.searshometownstores.com/","https://www.searshometownstores.com/home/az/green valley/3656","GREEN VALLEY -AUTH HOMETOWN","115A W ESPERANZA BLVD","GREEN VALLEY","AZ","85614","US","0003656","(520) 393-1943","<MISSING>","31.902006","-110.98634","mon 9 AM - 6 PM tue 9 AM - 6 PM wed 9 AM - 6 PM thu 9 AM - 6 PM fri 9 AM - 6 PM sat 9 AM - 6 PM sun 11 AM - 4 PM "
"https://www.searshometownstores.com/","https://www.searshometownstores.com/home/wi/wisc rapids/3501","SEARS HOMETOWN WISCONSIN RAPID","910 HUNTINGTON AVE","WISC RAPIDS","WI","54494","US","0003501","(715) 424-2710","<MISSING>","44.372121","-89.815651","mon 9 AM - 6 PM tue 9 AM - 6 PM wed 9 AM - 6 PM thu 9 AM - 6 PM fri 9 AM - 6 PM sat 9 AM - 6 PM sun 11 AM - 4 PM "
"https://www.searshometownstores.com/","https://www.searshometownstores.com/home/tx/cypress/5500","HOUSTON-BUDDY'S","25704 NORTHWEST FWY STE A","CYPRESS","TX","77429","US","0005500","() -","<MISSING>","29.936545","-95.579887","mon 10 AM - 7 PM tue 10 AM - 7 PM wed 10 AM - 7 PM thu 10 AM - 7 PM fri 10 AM - 7 PM sat 10 AM - 7 PM sun 12 AM - 6 PM "
"https://www.searshometownstores.com/","https://www.searshometownstores.com/home/tx/humble/7605","HUMBLE - AUTH HOMETOWN","232 FM 1960 BYPASS E STE 232A","HUMBLE","TX","77338","US","0007605","(832) 626-1527","<MISSING>","30.002789","-95.26469","mon 9 AM - 7 PM tue 9 AM - 7 PM wed 9 AM - 7 PM thu 9 AM - 7 PM fri 9 AM - 7 PM sat 9 AM - 7 PM sun 11 AM - 4 PM "
"https://www.searshometownstores.com/","https://www.searshometownstores.com/home/tx/cleveland/7787","CLEVELAND - AUTH HOMETOWN","638 EAST HOUSTON ST","CLEVELAND","TX","77327","US","0007787","(281) 659-1200","<MISSING>","30.340963","-95.082338","mon 9 AM - 6 PM tue 9 AM - 6 PM wed 9 AM - 6 PM thu 9 AM - 6 PM fri 9 AM - 6 PM sat 9 AM - 6 PM sun 11 AM - 4 PM "
"https://www.searshometownstores.com/","https://www.searshometownstores.com/home/tx/sugar land/7178","SEARS HOME APPLIANCE SHOWROOM","15850 SOUTHWEST FRWY STE 300","SUGAR LAND","TX","77478","US","0007178","(281) 240-0157","<MISSING>","29.601","-95.621","mon 10 AM - 8 PM tue 10 AM - 8 PM wed 10 AM - 8 PM thu 10 AM - 8 PM fri 10 AM - 8 PM sat 10 AM - 8 PM sun 11 AM - 5 PM "
"https://www.searshometownstores.com/","https://www.searshometownstores.com/home/tx/sealy/1932","SEALY - AUTH HOMETOWN","3297 HWY 36","SEALY","TX","77474","US","0001932","(979) 627-7889","<MISSING>","29.820137","-96.165853","mon 9:30 AM - 6 PM tue 9:30 AM - 6 PM wed 9:30 AM - 6 PM thu 9:30 AM - 6 PM fri 9:30 AM - 6 PM sat 9:30 AM - 6 PM sun 11 AM - 4 PM "
"https://www.searshometownstores.com/","https://www.searshometownstores.com/home/tx/liberty/3026","LIBERTY - AUTH HOMETOWN","2339 N MAIN","LIBERTY","TX","77575","US","0003026","(936) 336-9642","<MISSING>","30.0737857818603","-94.7836386412382","mon 9 AM - 6 PM tue 9 AM - 6 PM wed 9 AM - 6 PM thu 9 AM - 6 PM fri 9 AM - 6 PM sat 9 AM - 6 PM sun 11 AM - 4 PM "
"https://www.searshometownstores.com/","https://www.searshometownstores.com/home/tx/el campo/3014","EL CAMPO-AUTH HOMETOWN STOR","817 WEST LOOP","EL CAMPO","TX","77437","US","0003014","(979) 320-6715","<MISSING>","29.190945","-96.290718","mon 9 AM - 6 PM tue 9 AM - 6 PM wed 9 AM - 6 PM thu 9 AM - 6 PM fri 9 AM - 6 PM sat 9 AM - 6 PM sun 12 AM - 5 PM "
"https://www.searshometownstores.com/","https://www.searshometownstores.com/home/tx/bay city/3468","BAY CITY - AUTH HOMETOWN","3120 AVENUE F","BAY CITY","TX","77414","US","0003468","(979) 245-3226","<MISSING>","28.971649","-95.969543","mon 9 AM - 6 PM tue 9 AM - 6 PM wed 9 AM - 6 PM thu 9 AM - 6 PM fri 9 AM - 6 PM sat 9 AM - 6 PM sun 11 AM - 4 PM "
"https://www.searshometownstores.com/","https://www.searshometownstores.com/home/ok/elk city/3386","ELK CITY - AUTH HOMETOWN","2821 W 3RD ST","ELK CITY","OK","73644","US","0003386","(580) 225-2131","<MISSING>","35.4117","-99.439539","mon 9 AM - 6 PM tue 9 AM - 6 PM wed 9 AM - 6 PM thu 9 AM - 6 PM fri 9 AM - 6 PM sat 9 AM - 6 PM sun 11 AM - 4 PM "
"https://www.searshometownstores.com/","https://www.searshometownstores.com/home/tx/pampa/3882","PAMPA -  AUTH HOMETOWN","1623 N HOBART ST","PAMPA","TX","79065","US","0003882","(806) 665-7568","<MISSING>","35.553832","-100.971952","mon 10 AM - 7 PM tue 10 AM - 7 PM wed 10 AM - 7 PM thu 10 AM - 7 PM fri 10 AM - 7 PM sat 9 AM - 6 PM sun 11 AM - 4 PM "
"https://www.searshometownstores.com/","https://www.searshometownstores.com/home/ok/altus/3742","ALTUS - AUTH HOMETOWN","3003 E BROADWAY ST","ALTUS","OK","73521","US","0003742","(580) 482-6710","<MISSING>","34.637956","-99.291531","mon 9 AM - 6 PM tue 9 AM - 6 PM wed 9 AM - 6 PM thu 9 AM - 6 PM fri 9 AM - 6 PM sat 9 AM - 6 PM sun 11 AM - 4 PM "
"https://www.searshometownstores.com/","https://www.searshometownstores.com/home/wa/sequim/3919","SEQUIM - AUTH HOMETOWN","232 VALLEY CENTER PL","SEQUIM","WA","98382","US","0003919","(360) 681-3079","<MISSING>","48.077863","-123.170355","mon 9 AM - 6 PM tue 9 AM - 6 PM wed 9 AM - 6 PM thu 9 AM - 6 PM fri 9 AM - 6 PM sat 9 AM - 6 PM sun 11 AM - 4 PM "
"https://www.searshometownstores.com/","https://www.searshometownstores.com/home/wa/port angeles/3549","PORT ANGELES -AUTH HOMETOWN","520 S LINCOLN ST","PORT ANGELES","WA","98362","US","0003549","(360) 457-9481","<MISSING>","48.114868","-123.43394","mon 9 AM - 6 PM tue 9 AM - 6 PM wed 9 AM - 6 PM thu 9 AM - 6 PM fri 9 AM - 6 PM sat 9 AM - 6 PM sun 11 AM - 4 PM "
"https://www.searshometownstores.com/","https://www.searshometownstores.com/home/wa/oak harbor/3589","OAK HARBOR - AUTH HOMETOWN","230 SE PIONEER WAY","OAK HARBOR","WA","98277","US","0003589","(360) 675-0660","<MISSING>","48.28772","-122.654848","mon 9:30 AM - 7 PM tue 9:30 AM - 7 PM wed 9:30 AM - 7 PM thu 9:30 AM - 7 PM fri 9:30 AM - 7 PM sat 9 AM - 7 PM sun 11 AM - 4 PM "
"https://www.searshometownstores.com/","https://www.searshometownstores.com/home/ia/clarinda/1812","CLARINDA - AUTH HOMETOWN","1000 SOUTH 8TH STREET","CLARINDA","IA","51632","US","0001812","(712) 542-3322","<MISSING>","40.728253","-95.028118","mon 9 AM - 6 PM tue 9 AM - 6 PM wed 9 AM - 6 PM thu 9 AM - 6 PM fri 9 AM - 6 PM sat 9 AM - 6 PM sun 12 AM - 5 PM "
"https://www.searshometownstores.com/","https://www.searshometownstores.com/home/or/mc minnville/3469","MC MINNVILLE -AUTH HOMETOWN","1621 NE BAKER STREET","MC MINNVILLE","OR","97128","US","0003469","(503) 472-2101","<MISSING>","45.22255","-123.19545","mon 9 AM - 6 PM tue 9 AM - 6 PM wed 9 AM - 6 PM thu 9 AM - 6 PM fri 9 AM - 6 PM sat 9 AM - 6 PM sun 11 AM - 4 PM "
"https://www.searshometownstores.com/","https://www.searshometownstores.com/home/or/florence/3876","FLORENCE - AUTH HOMETOWN","685A HIGHWAY 101","FLORENCE","OR","97439","US","0003876","(541) 997-3273","<MISSING>","43.972496","-124.10332","mon 9 AM - 6 PM tue 9 AM - 6 PM wed 9 AM - 6 PM thu 9 AM - 6 PM fri 9 AM - 6 PM sat 9 AM - 6 PM sun 10 AM - 3 PM "
"https://www.searshometownstores.com/","https://www.searshometownstores.com/home/id/burley/3151","BURLEY - AUTH HOMETOWN","2338 OVERLAND AVE","BURLEY","ID","83318","US","0003151","(208) 878-8004","<MISSING>","42.524944","-113.79256","mon 9 AM - 6 PM tue 9 AM - 6 PM wed 9 AM - 6 PM thu 9 AM - 6 PM fri 9 AM - 6 PM sat 9 AM - 6 PM sun 12 AM - 5 PM "
"https://www.searshometownstores.com/","https://www.searshometownstores.com/home/wy/cody/3359","CODY - AUTH HOMETOWN","762 LINDSAY LN","CODY","WY","82414","US","0003359","(307) 587-2500","<MISSING>","44.520412","-109.07204","mon 9 AM - 6 PM tue 9 AM - 6 PM wed 9 AM - 6 PM thu 9 AM - 6 PM fri 9 AM - 6 PM sat 9 AM - 6 PM sun 11 AM - 4 PM "
"https://www.searshometownstores.com/","https://www.searshometownstores.com/home/wy/sheridan/3410","SHERIDAN - AUTH HOMETOWN","1467 COFFEEN AVE","SHERIDAN","WY","82801","US","0003410","(307) 674-0660","<MISSING>","44.782085","-106.94191","mon 9 AM - 6 PM tue 9 AM - 6 PM wed 9 AM - 6 PM thu 9 AM - 6 PM fri 9 AM - 6 PM sat 9 AM - 6 PM sun 12 AM - 5 PM "
"https://www.searshometownstores.com/","https://www.searshometownstores.com/home/wy/riverton/3018","RIVERTON - AUTH HOMETOWN","906 W MAIN ST","RIVERTON","WY","82501","US","0003018","(307) 855-4001","<MISSING>","43.024617","-108.403246","mon 9 AM - 6 PM tue 9 AM - 6 PM wed 9 AM - 6 PM thu 9 AM - 6 PM fri 9 AM - 6 PM sat 9 AM - 6 PM sun 11 AM - 4 PM "
"https://www.searshometownstores.com/","https://www.searshometownstores.com/home/al/foley/5770","FOLEY - AUTH HOMETOWN","3798 S MCKENZIE ST","FOLEY","AL","36535","US","0005770","(251) 970-2122","<MISSING>","30.356571","-87.683458","mon 9 AM - 6 PM tue 9 AM - 6 PM wed 9 AM - 6 PM thu 9 AM - 6 PM fri 9 AM - 6 PM sat 9 AM - 6 PM sun 12 AM - 5 PM "
"https://www.searshometownstores.com/","https://www.searshometownstores.com/home/fl/niceville/3245","NICEVILLE - AUTH HOMETOWN","792 E JOHN SIMS PKWY","NICEVILLE","FL","32578","US","0003245","(850) 678-9955","<MISSING>","30.515684","-86.46595","mon 9 AM - 6 PM tue 9 AM - 6 PM wed 9 AM - 6 PM thu 9 AM - 6 PM fri 9 AM - 6 PM sat 9 AM - 6 PM sun 11 AM - 4 PM "
"https://www.searshometownstores.com/","https://www.searshometownstores.com/home/al/andalusia/3105","ANDALUSIA - AUTH HOMETOWN","204 WEST BYPASS","ANDALUSIA","AL","36420","US","0003105","(334) 208-8886","<MISSING>","31.31866","-86.456466","mon 9 AM - 6 PM tue 9 AM - 6 PM wed 9 AM - 6 PM thu 9 AM - 6 PM fri 9 AM - 6 PM sat 9 AM - 6 PM sun 12 AM - 5 PM "
"https://www.searshometownstores.com/","https://www.searshometownstores.com/home/al/jackson/3852","JACKSON - AUTH HOMETOWN","4435 N COLLEGE AVE","JACKSON","AL","36545","US","0003852","(251) 246-4844","<MISSING>","31.548143","-87.879082","mon 9 AM - 6 PM tue 9 AM - 6 PM wed 9 AM - 6 PM thu 9 AM - 6 PM fri 9 AM - 6 PM sat 9 AM - 6 PM sun 12 AM - 5 PM "
"https://www.searshometownstores.com/","https://www.searshometownstores.com/home/la/eunice/3526","EUNICE - AUTH HOMETOWN","340 E LAUREL AVE","EUNICE","LA","70535","US","0003526","(337) 457-8843","<MISSING>","30.494946","-92.411591","mon 8.30 AM - 6 PM tue 8.30 AM - 6 PM wed 8.30 AM - 6 PM thu 8.30 AM - 6 PM fri 8.30 AM - 6 PM sat 9 AM - 6 PM sun 12 AM - 5 PM "
"https://www.searshometownstores.com/","https://www.searshometownstores.com/home/la/lafayette/1706","SEARS HOME & LIFE LAFAYETTE","4405 AMBASSADOR CAFFERY","LAFAYETTE","LA","70508","US","0001706","(337) 254-1364","<MISSING>","30.15927","-92.04777","mon 9 AM - 4 PM tue 10 AM - 7 PM wed 10 AM - 7 PM thu 10 AM - 7 PM fri 10 AM - 7 PM sat 9 AM - 6 PM sun 10 AM - 6 PM "
"https://www.searshometownstores.com/","https://www.searshometownstores.com/home/sc/walterboro/3836","WALTERBORO - AUTH HOMETOWN","377 BELLS HWY","WALTERBORO","SC","29488","US","0003836","(843) 542-9602","<MISSING>","32.921106","-80.678739","mon 9 AM - 6 PM tue 9 AM - 6 PM wed 9 AM - 6 PM thu 9 AM - 6 PM fri 9 AM - 6 PM sat 9 AM - 6 PM sun 12 AM - 5 PM "
"https://www.searshometownstores.com/","https://www.searshometownstores.com/home/ga/statesboro/3385","325 NORTHSIDE DRIVE EAST","SUITE 36","STATESBORO","GA","30458","US","0003385","(912) 764-6791","<MISSING>","32.436844","-81.760166","mon 9 AM - 6 PM tue 9 AM - 6 PM wed 9 AM - 6 PM thu 9 AM - 6 PM fri 9 AM - 6 PM sat 9 AM - 6 PM sun 12 AM - 5 PM "
"https://www.searshometownstores.com/","https://www.searshometownstores.com/home/tx/alice/3728","ALICE - AUTH HOMETOWN","811 E MAIN ST STE C","ALICE","TX","78332","US","0003728","(361) 664-4777","<MISSING>","27.749891","-98.06842","mon 9:30 AM - 7 PM tue 9:30 AM - 7 PM wed 9:30 AM - 7 PM thu 9:30 AM - 7 PM fri 9:30 AM - 7 PM sat 9:30 AM - 7 PM sun 12 AM - 5 PM "
"https://www.searshometownstores.com/","https://www.searshometownstores.com/home/tx/rockport/3827","ROCKPORT/FULTON-AUTH HMTWN","3308 HWY 35 N","ROCKPORT","TX","78382","US","0003827","(361) 729-8882","<MISSING>","28.068933","-97.041061","mon 9 AM - 6 PM tue 9 AM - 6 PM wed 9 AM - 6 PM thu 9 AM - 6 PM fri 9 AM - 6 PM sat 9 AM - 6 PM sun 12 AM - 5 PM "
"https://www.searshometownstores.com/","https://www.searshometownstores.com/home/al/oneonta/3646","ONEONTA - AUTH HOMETOWN","1908 2ND AVE E","ONEONTA","AL","35121","US","0003646","(205) 274-2309","<MISSING>","33.966576","-86.456779","mon 9 AM - 6 PM tue 9 AM - 6 PM wed 9 AM - 6 PM thu 9 AM - 6 PM fri 9 AM - 6 PM sat 9 AM - 6 PM sun 12 AM - 5 PM "
"https://www.searshometownstores.com/","https://www.searshometownstores.com/home/al/selma/3115","SELMA - AUTH HOMETOWN","2908 CITIZENS PKWY","SELMA","AL","36701","US","0003115","(334) 874-7300","<MISSING>","32.441181","-87.019684","mon 9 AM - 6 PM tue 9 AM - 6 PM wed 9 AM - 6 PM thu 9 AM - 6 PM fri 9 AM - 6 PM sat 9 AM - 6 PM sun 11 AM - 4 PM "
"https://www.searshometownstores.com/","https://www.searshometownstores.com/home/mt/kalispell/3248","KALISPELL - AUTH HOMETOWN","1105 US HIGHWAY 2 W","KALISPELL","MT","59901","US","0003248","(406) 755-5678","<MISSING>","48.200577","-114.33037","mon 9 AM - 6 PM tue 9 AM - 6 PM wed 9 AM - 6 PM thu 9 AM - 6 PM fri 9 AM - 6 PM sat 9 AM - 6 PM sun 11 AM - 4 PM "
"https://www.searshometownstores.com/","https://www.searshometownstores.com/home/mt/libby/3929","LIBBY - AUTH HOMETOWN","520 MINERAL AVE","LIBBY","MT","59923","US","0003929","(406) 293-7327","<MISSING>","48.391243","-115.55128","mon 9 AM - 6:30 PM tue 9 AM - 6:30 PM wed 9 AM - 6:30 PM thu 9 AM - 6:30 PM fri 9 AM - 6:30 PM sat 9 AM - 6 PM sun 11 AM - 4 PM "
"https://www.searshometownstores.com/","https://www.searshometownstores.com/home/tx/wichita falls/7162","WICHITA FALLS AUTH HOMETOWN","2901 LYDIA DR","WICHITA FALLS","TX","76308","US","0007162","(940) 539-9905","<MISSING>","33.856185","-98.53931","mon 9 AM - 7 PM tue 9 AM - 7 PM wed 9 AM - 7 PM thu 9 AM - 7 PM fri 9 AM - 7 PM sat 9 AM - 7 PM sun 11 AM - 4 PM "
"https://www.searshometownstores.com/","https://www.searshometownstores.com/home/az/goodyear/1829","SEARS HOME APPLIANCE SHOWROOM","13277 W MCDOWELL RD  STE 101","GOODYEAR","AZ","85338","US","0001829","(623) 536-0800","<MISSING>","33.464063","-112.345953","mon 10 AM - 9 PM tue 10 AM - 9 PM wed 10 AM - 9 PM thu 10 AM - 9 PM fri 10 AM - 9 PM sat 10 AM - 9 PM sun 11 AM - 7 PM "
"https://www.searshometownstores.com/","https://www.searshometownstores.com/home/az/chandler/3008","SEARS HOME APPLIANCE SHOWROOM","2100 S GILBERT RD STE 7","CHANDLER","AZ","85286","US","0003008","(480) 899-4291","<MISSING>","33.276368263","-111.79069519","mon 10 AM - 9 PM tue 10 AM - 9 PM wed 10 AM - 9 PM thu 10 AM - 9 PM fri 10 AM - 9 PM sat 10 AM - 9 PM sun 11 AM - 7 PM "
"https://www.searshometownstores.com/","https://www.searshometownstores.com/home/az/fountain hls/1841","FOUNTAIN HILLS-AUTH HOMETWN","13212 N SAGUARO BLVD","FOUNTAIN HLS","AZ","85268","US","0001841","(480) 816-9775","<MISSING>","33.607613","-111.7142","mon 9 AM - 6 PM tue 9 AM - 6 PM wed 9 AM - 6 PM thu 9 AM - 6 PM fri 9 AM - 6 PM sat 9 AM - 6 PM sun 11 AM - 4 PM "
"https://www.searshometownstores.com/","https://www.searshometownstores.com/home/tx/temple/3527","TEMPLE - AUTH HOMETOWN","1212 MARLANDWOOD","TEMPLE","TX","76502","US","0003527","(254) 770-1221","<MISSING>","31.061992","-97.363512","mon 9 AM - 6 PM tue 9 AM - 6 PM wed 9 AM - 6 PM thu 9 AM - 6 PM fri 9 AM - 6 PM sat 9 AM - 6 PM sun 11 AM - 4 PM "
"https://www.searshometownstores.com/","https://www.searshometownstores.com/home/ca/napa/3269","NAPA - AUTH HOMETOWN","1701 SOSCOL AVE","NAPA","CA","94559","US","0003269","(707) 252-8980","<MISSING>","38.281494","-122.28509","mon 9 AM - 6 PM tue 9 AM - 6 PM wed 9 AM - 6 PM thu 9 AM - 6 PM fri 9 AM - 6 PM sat 9 AM - 6 PM sun 11 AM - 4 PM "
"https://www.searshometownstores.com/","https://www.searshometownstores.com/home/ca/clearlake/3049","CLEARLAKE - AUTH HOMETOWN","15875 DAM ROAD EXT","CLEARLAKE","CA","95422","US","0003049","(707) 995-6000","<MISSING>","38.961941","-122.63253","mon 9 AM - 6 PM tue 9 AM - 6 PM wed 9 AM - 6 PM thu 9 AM - 6 PM fri 9 AM - 6 PM sat 9 AM - 6 PM sun 11 AM - 4 PM "
"https://www.searshometownstores.com/","https://www.searshometownstores.com/home/ca/lakeport/3029","FOUNTAIN SQUARE PLAZA","2570 SOUTH MAIN ST","LAKEPORT","CA","95453","US","0003029","(707) 262-0262","<MISSING>","39.014259","-122.90865","mon 9 AM - 6 PM tue 9 AM - 6 PM wed 9 AM - 6 PM thu 9 AM - 6 PM fri 9 AM - 6 PM sat 9 AM - 6 PM sun 11 AM - 4 PM "
"https://www.searshometownstores.com/","https://www.searshometownstores.com/home/ar/russellville/3167","RUSSELLVILLE -AUTH HOMETOWN","920 S ARKANSAS AVE","RUSSELLVILLE","AR","72801","US","0003167","(479) 968-5101","<MISSING>","35.270222","-93.133652","mon 9 AM - 6 PM tue 9 AM - 6 PM wed 9 AM - 6 PM thu 9 AM - 6 PM fri 9 AM - 6 PM sat 9 AM - 6 PM sun 11 AM - 4 PM "
"https://www.searshometownstores.com/","https://www.searshometownstores.com/home/ar/malvern/3906","MALVERN - AUTH HOMETOWN","1339 HWY 270 WEST","MALVERN","AR","72104","US","0003906","(501) 332-4200","<MISSING>","34.375385","-92.825554","mon 9 AM - 6 PM tue 9 AM - 6 PM wed 9 AM - 6 PM thu 9 AM - 6 PM fri 9 AM - 6 PM sat 9 AM - 6 PM sun 12 AM - 5 PM "
"https://www.searshometownstores.com/","https://www.searshometownstores.com/home/ar/arkadelphia/3796","ARKADELPHIA - AUTH HOMETOWN","2919 W PINE","ARKADELPHIA","AR","71923","US","0003796","(870) 245-3900","<MISSING>","34.119867","-93.085712","mon 9 AM - 7 PM tue 9 AM - 7 PM wed 9 AM - 7 PM thu 9 AM - 7 PM fri 9 AM - 7 PM sat 8 AM - 6 PM sun 11 AM - 4 PM "
"https://www.searshometownstores.com/","https://www.searshometownstores.com/home/ar/camden/3087","CAMDEN - AUTH HOMETOWN","150 GARDEN OAKS DR SW","CAMDEN","AR","71701","US","0003087","(870) 836-8151","<MISSING>","33.584637","-92.849312","mon 9 AM - 6 PM tue 9 AM - 6 PM wed 9 AM - 6 PM thu 9 AM - 6 PM fri 9 AM - 6 PM sat 9 AM - 6 PM sun 12 AM - 5 PM "
"https://www.searshometownstores.com/","https://www.searshometownstores.com/home/nm/taos/3339","TAOS - AUTH HOMETOWN","1046 PASEO DEL PUEBLO SUR","TAOS","NM","87571","US","0003339","(575) 758-8618","<MISSING>","36.392048","-105.58096","mon 9 AM - 6 PM tue 9 AM - 6 PM wed 9 AM - 6 PM thu 9 AM - 6 PM fri 9 AM - 6 PM sat 9 AM - 6 PM sun 10 AM - 3 PM "
"https://www.searshometownstores.com/","https://www.searshometownstores.com/home/co/trinidad/3858","TRINIDAD - AUTH HOMETOWN","2128 FREEDOM RD","TRINIDAD","CO","81082","US","0003858","(719) 846-1400","<MISSING>","37.187816","-104.497614","mon 9 AM - 6 PM tue 9 AM - 6 PM wed 9 AM - 6 PM thu 9 AM - 6 PM fri 9 AM - 6 PM sat 9 AM - 6 PM sun 11 AM - 4 PM "
"https://www.searshometownstores.com/","https://www.searshometownstores.com/home/ak/anchorage/1476","SEARS HOME & LIFE ANCHORAGE","901 E DIMOND","ANCHORAGE","AK","99515","US","0001476","(907) 205-2460","<MISSING>","61.14477","-149.86589","mon 10 AM - 8 PM tue 10 AM - 8 PM wed 10 AM - 8 PM thu 10 AM - 8 PM fri 10 AM - 8 PM sat 9 AM - 7 PM sun 10 AM - 6 PM "
"https://www.searshometownstores.com/","https://www.searshometownstores.com/home/mi/sault s marie/3180","SAULT STE MARIE-AUTH HMTOWN","1140 W 3 MILE RD","SAULT S MARIE","MI","49783","US","0003180","(906) 635-6900","<MISSING>","46.462864","-84.386414","mon 9 AM - 6 PM tue 9 AM - 6 PM wed 9 AM - 6 PM thu 9 AM - 6 PM fri 9 AM - 6 PM sat 9 AM - 6 PM sun 11 AM - 4 PM "
"https://www.searshometownstores.com/","https://www.searshometownstores.com/home/tx/eagle pass/3338","EAGLE PASS - AUTH HOMETOWN","425 SOUTH MONROE ST.","EAGLE PASS","TX","78852","US","0003338","(830) 757-9029","<MISSING>","28.701982","-100.499117","mon 9:30 AM - 7 PM tue 9:30 AM - 7 PM wed 9:30 AM - 7 PM thu 9:30 AM - 7 PM fri 9:30 AM - 7 PM sat 9 AM - 6 PM sun 12 AM - 5 PM "
"https://www.searshometownstores.com/","https://www.searshometownstores.com/home/tx/del rio/3406","DEL RIO - AUTH HOMETOWN","2400 VETERANS BLVD STE 16A","DEL RIO","TX","78840","US","0003406","(830) 774-1566","<MISSING>","29.393398","-100.905757","mon 9:30 AM - 7 PM tue 9:30 AM - 7 PM wed 9:30 AM - 7 PM thu 9:30 AM - 7 PM fri 9:30 AM - 7 PM sat 9 AM - 6 PM sun 11 AM - 4 PM "
"https://www.searshometownstores.com/","https://www.searshometownstores.com/home/nc/new bern/3894","NEW BERN - AUTH HOMETOWN","3138 MARTIN LUTHER KNG  SPC414","NEW BERN","NC","28562","US","0003894","(252) 514-0250","<MISSING>","35.104786","-77.08239","mon 10 AM - 9 PM tue 10 AM - 9 PM wed 10 AM - 9 PM thu 10 AM - 9 PM fri 10 AM - 9 PM sat 10 AM - 9 PM sun 12 AM - 6 PM "
"https://www.searshometownstores.com/","https://www.searshometownstores.com/home/nc/edenton/6863","EDENTON - AUTH HOMETOWN","211 S BROAD STREET","EDENTON","NC","27932","US","0006863","(252) 482-4004","<MISSING>","36.058922","-76.608541","mon 9 AM - 6 PM tue 9 AM - 6 PM wed 9 AM - 6 PM thu 9 AM - 6 PM fri 9 AM - 6 PM sat 9 AM - 6 PM sun 11 AM - 4 PM "
"https://www.searshometownstores.com/","https://www.searshometownstores.com/home/fl/st augustine/3195","PONCE DE LEON MALL","2121 US 1 SOUTH SPACE 10","ST AUGUSTINE","FL","32086","US","0003195","(904) 794-5814","<MISSING>","29.879812","-81.325043","mon 9 AM - 6 PM tue 9 AM - 6 PM wed 9 AM - 6 PM thu 9 AM - 6 PM fri 9 AM - 6 PM sat 9 AM - 6 PM sun 11 AM - 4 PM "
"https://www.searshometownstores.com/","https://www.searshometownstores.com/home/fl/starke/7720","STARKE - AUTH HOMETOWN","411 W MADISON STREET","STARKE","FL","32091","US","0007720","(904) 368-9966","<MISSING>","29.944301","-82.112975","mon 9 AM - 6 PM tue 9 AM - 6 PM wed 9 AM - 6 PM thu 9 AM - 6 PM fri 9 AM - 6 PM sat 9 AM - 6 PM sun 9:30 AM - 5:30 PM "
"https://www.searshometownstores.com/","https://www.searshometownstores.com/home/ca/ukiah/3199","UKIAH - AUTH HOMETOWN","1230 AIRPORT PARK BLVD SUITE B","UKIAH","CA","95482","US","0003199","(707) 462-6581","<MISSING>","39.151066","-123.19788","mon 9 AM - 6 PM tue 9 AM - 6 PM wed 9 AM - 6 PM thu 9 AM - 6 PM fri 9 AM - 6 PM sat 9 AM - 6 PM sun 11 AM - 4 PM "
"https://www.searshometownstores.com/","https://www.searshometownstores.com/home/nm/ruidoso downs/3966","RUIDOSO DOWNS-AUTH HOMETOWN","26142 US HIGHWAY 70","RUIDOSO DOWNS","NM","88346","US","0003966","(575) 378-4700","<MISSING>","33.346684","-105.57072","mon 9 AM - 6 PM tue 9 AM - 6 PM wed 9 AM - 6 PM thu 9 AM - 6 PM fri 9 AM - 6 PM sat 9 AM - 6 PM sun 11 AM - 4 PM "
"https://www.searshometownstores.com/","https://www.searshometownstores.com/home/sc/georgetown/3785","GEORGETOWN - AUTH HOMETOWN","1249 N FRASER ST","GEORGETOWN","SC","29440","US","0003785","(843) 545-9595","<MISSING>","33.389759","-79.28936","mon 9 AM - 6 PM tue 9 AM - 6 PM wed 9 AM - 6 PM thu 9 AM - 6 PM fri 9 AM - 6 PM sat 9 AM - 6 PM sun 12 AM - 5 PM "
"https://www.searshometownstores.com/","https://www.searshometownstores.com/home/tx/fort stockton/3766","FORT STOCKTON-AUTH HOMETOWN","1208 W DICKINSON BLVD","FORT STOCKTON","TX","79735","US","0003766","(432) 336-6850","<MISSING>","30.893785","-102.89079","mon 8.30 AM - 6 PM tue 8.30 AM - 6 PM wed 8.30 AM - 6 PM thu 8.30 AM - 6 PM fri 8.30 AM - 6 PM sat 8.30 AM - 6 PM sun 11 AM - 4 PM "
"https://www.searshometownstores.com/","https://www.searshometownstores.com/home/ar/crossett/3597","CROSSETT - AUTH HOMETOWN","301 FAIRVIEW RD","CROSSETT","AR","71635","US","0003597","(870) 364-2131","<MISSING>","33.139538","-91.95359","mon 8.30 AM - 6 PM tue 8.30 AM - 6 PM wed 8.30 AM - 6 PM thu 8.30 AM - 6 PM fri 8.30 AM - 6 PM sat 8.30 AM - 6 PM sun 11 AM - 4 PM "
"https://www.searshometownstores.com/","https://www.searshometownstores.com/home/ar/el dorado/3107","EL DORADO - AUTH HOMETOWN","2020 NORTHWEST AVE","EL DORADO","AR","71730","US","0003107","(870) 862-6431","<MISSING>","33.230952","-92.665602","mon 9 AM - 6 PM tue 9 AM - 6 PM wed 9 AM - 6 PM thu 9 AM - 6 PM fri 9 AM - 6 PM sat 9 AM - 6 PM sun 12 AM - 5 PM "
"https://www.searshometownstores.com/","https://www.searshometownstores.com/home/ms/greenwood/3707","GREENWOOD - AUTH HOMETOWN","717 W PARK AVE","GREENWOOD","MS","38930","US","0003707","(662) 453-2131","<MISSING>","33.530018","-90.195633","mon 9 AM - 6 PM tue 9 AM - 6 PM wed 9 AM - 6 PM thu 9 AM - 6 PM fri 9 AM - 6 PM sat 9 AM - 6 PM sun 12 AM - 5 PM "
"https://www.searshometownstores.com/","https://www.searshometownstores.com/home/co/gunnison/7218","1000 N. MAIN STREET","SUITE 3","GUNNISON","CO","81230","US","0007218","(970) 641-2255","<MISSING>","38.555976","-106.92518","mon 9 AM - 6 PM tue 9 AM - 6 PM wed 9 AM - 6 PM thu 9 AM - 6 PM fri 9 AM - 6 PM sat 9 AM - 6 PM sun 11 AM - 4 PM "
"https://www.searshometownstores.com/","https://www.searshometownstores.com/home/co/salida/3590","PONCHA SPRINGS-AUTH HOMETWN","1015 E. HWY 50","SALIDA","CO","81201","US","0003590","(719) 539-6916","<MISSING>","38.527955","-105.991274","mon 9 AM - 6 PM tue 9 AM - 6 PM wed 9 AM - 6 PM thu 9 AM - 6 PM fri 9 AM - 6 PM sat 9 AM - 6 PM sun 11 AM - 4 PM "
"https://www.searshometownstores.com/","https://www.searshometownstores.com/home/co/montrose/3168","MONTROSE - AUTH HOMETOWN","1445 HAWK PKWY","MONTROSE","CO","81401","US","0003168","(970) 249-4596","<MISSING>","38.448881","-107.867252","mon 8.30 AM - 6:30 PM tue 8.30 AM - 6:30 PM wed 8.30 AM - 6:30 PM thu 8.30 AM - 6:30 PM fri 8.30 AM - 6:30 PM sat 9 AM - 6 PM sun 11 AM - 4 PM "
"https://www.searshometownstores.com/","https://www.searshometownstores.com/home/co/pagosa spgs/3900","PAGOSA SPGS - AUTH HOMETOWN","2800 CORNERSTONE DR UNIT 1","PAGOSA SPGS","CO","81147","US","0003900","(970) 731-0857","<MISSING>","37.265541","-107.014227","mon 9 AM - 6 PM tue 9 AM - 6 PM wed 9 AM - 6 PM thu 9 AM - 6 PM fri 9 AM - 6 PM sat 9 AM - 6 PM sun 11 AM - 4 PM "
"https://www.searshometownstores.com/","https://www.searshometownstores.com/home/co/alamosa/3848","ALAMOSA - AUTH HOMETOWN","239 WALKER RD","ALAMOSA","CO","81101","US","0003848","(719) 587-3882","<MISSING>","37.479809","-105.89537","mon 9 AM - 6 PM tue 9 AM - 6 PM wed 9 AM - 6 PM thu 9 AM - 6 PM fri 9 AM - 6 PM sat 9 AM - 6 PM sun 11 AM - 4 PM "
"https://www.searshometownstores.com/","https://www.searshometownstores.com/home/me/caribou/3427","CARIBOU-HTS INSIDE","57 SWEDEN ST","CARIBOU","ME","04736","US","0003427","(207) 496-8691","<MISSING>","46.860559","-68.014765","mon 9 AM - 7 PM tue 9 AM - 7 PM wed 9 AM - 7 PM thu 9 AM - 7 PM fri 9 AM - 7 PM sat 9 AM - 7 PM sun 9 AM - 5 PM "
"https://www.searshometownstores.com/","https://www.searshometownstores.com/home/ga/jesup/3305","JESUP - AUTH HOMETOWN","977 S 1ST ST","JESUP","GA","31545","US","0003305","(912) 427-2435","<MISSING>","31.604204","-81.906029","mon 9 AM - 6 PM tue 9 AM - 6 PM wed 9 AM - 6 PM thu 9 AM - 6 PM fri 9 AM - 6 PM sat 9 AM - 6 PM sun 12 AM - 5 PM "
"https://www.searshometownstores.com/","https://www.searshometownstores.com/home/ga/saint marys/3365","ST MARYS- AUTH HOMETOWN","28 HAWTHORN LN","SAINT MARYS","GA","31558","US","0003365","(912) 882-5858","<MISSING>","30.753197","-81.588013","mon 9 AM - 6 PM tue 9 AM - 6 PM wed 9 AM - 6 PM thu 9 AM - 6 PM fri 9 AM - 7 PM sat 9 AM - 6 PM sun 12 AM - 5 PM "
"https://www.searshometownstores.com/","https://www.searshometownstores.com/home/ne/chadron/3324","CHADRON - AUTH HOMETOWN","302 E 2ND STREET","CHADRON","NE","69337","US","0003324","(308) 432-8902","<MISSING>","42.830776","-102.997784","mon 9 AM - 6 PM tue 9 AM - 6 PM wed 9 AM - 6 PM thu 9 AM - 6 PM fri 9 AM - 6 PM sat 9 AM - 6 PM sun 11 AM - 4 PM "
"https://www.searshometownstores.com/","https://www.searshometownstores.com/home/co/sterling/3188","STERLING - AUTH HOMETOWN","100 BROADWAY ST. SUITE 5","STERLING","CO","80751","US","0003188","(970) 522-0541","<MISSING>","40.634917","-103.199809","mon 9 AM - 6 PM tue 9 AM - 6 PM wed 9 AM - 6 PM thu 9 AM - 6 PM fri 9 AM - 6 PM sat 9 AM - 6 PM sun 11 AM - 4 PM "
"https://www.searshometownstores.com/","https://www.searshometownstores.com/home/in/angola/3760","ANGOLA -AUTH HOMETOWN","1221 N WAYNE ST","ANGOLA","IN","46703","US","0003760","(260) 665-8554","<MISSING>","41.648701","-84.999573","mon 9 AM - 6 PM tue 9 AM - 6 PM wed 9 AM - 6 PM thu 9 AM - 6 PM fri 9 AM - 7 PM sat 9 AM - 6 PM sun 11 AM - 4 PM "
"https://www.searshometownstores.com/","https://www.searshometownstores.com/home/sd/spearfish/3662","SPEARFISH - AUTH HOMETOWN","714 N. MAIN ST.","SPEARFISH","SD","57783","US","0003662","(605) 642-3103","<MISSING>","44.475731","-103.8129","mon 9 AM - 6 PM tue 9 AM - 6 PM wed 9 AM - 6 PM thu 9 AM - 6 PM fri 9 AM - 6 PM sat 9 AM - 6 PM sun 11 AM - 4 PM "
"https://www.searshometownstores.com/","https://www.searshometownstores.com/home/or/ontario/3379","ONTARIO - AUTH HOMETOWN","2441 SW 4TH AVE","ONTARIO","OR","97914","US","0003379","(541) 889-4525","<MISSING>","44.025039","-116.998373","mon 9 AM - 6 PM tue 9 AM - 6 PM wed 9 AM - 6 PM thu 9 AM - 6 PM fri 9 AM - 6 PM sat 9 AM - 6 PM sun 11 AM - 6 PM "
"https://www.searshometownstores.com/","https://www.searshometownstores.com/home/id/nampa/3121","NAMPA - AUTH HOMETOWN","1404 1ST ST S","NAMPA","ID","83651","US","0003121","(208) 467-7787","<MISSING>","43.57748","-116.55697","mon 9 AM - 6 PM tue 9 AM - 6 PM wed 9 AM - 6 PM thu 9 AM - 6 PM fri 9 AM - 6 PM sat 9 AM - 6 PM sun 11 AM - 4 PM "
"https://www.searshometownstores.com/","https://www.searshometownstores.com/home/ny/potsdam/3104","POTSDAM - AUTH HOMETOWN","6582 STATE HIGHWAY 56","POTSDAM","NY","13676","US","0003104","(315) 268-0909","<MISSING>","44.668633","-74.98719","mon 9 AM - 7 PM tue 9 AM - 7 PM wed 9 AM - 7 PM thu 9 AM - 7 PM fri 9 AM - 7 PM sat 9 AM - 7 PM sun 10 AM - 5 PM "
"https://www.searshometownstores.com/","https://www.searshometownstores.com/home/co/durango/3208","DURANGO - AUTH HOMETOWN","800 S CAMINO DEL RIO","DURANGO","CO","81301","US","0003208","(970) 247-2423","<MISSING>","37.242664","-107.87115","mon 10 AM - 8 PM tue 10 AM - 8 PM wed 10 AM - 8 PM thu 10 AM - 8 PM fri 10 AM - 8 PM sat 10 AM - 7 PM sun 11 AM - 6 PM "
"https://www.searshometownstores.com/","https://www.searshometownstores.com/home/nv/elko/3989","ELKO - AUTH HOMETOWN","2120 IDAHO STREET","ELKO","NV","89801","US","0003989","(775) 777-7766","<MISSING>","40.847665","-115.747761","mon 9 AM - 6 PM tue 9 AM - 6 PM wed 9 AM - 6 PM thu 9 AM - 6 PM fri 9 AM - 6 PM sat 9 AM - 6 PM sun 11 AM - 4 PM "
"https://www.searshometownstores.com/","https://www.searshometownstores.com/home/hi/honolulu/1681","SEARS APPLIANCE & MATTRESS","1555 KONA ST","HONOLULU","HI","96814","US","0001681","(808) 376-2171","<MISSING>","21.291104","-157.843462","mon 10 AM - 7 PM tue 10 AM - 7 PM wed 10 AM - 7 PM thu 10 AM - 7 PM fri 10 AM - 7 PM sat 9 AM - 6 PM sun 10 AM - 6 PM "
"https://www.searshometownstores.com/","https://www.searshometownstores.com/home/wa/friday harbor/3753","FRI HARBOR - AUTH HOMETOWN","535 MARKET ST SUITE C","FRIDAY HARBOR","WA","98250","US","0003753","(360) 317-1215","<MISSING>","48.529719","-123.02193","mon 8 AM - 6 PM tue 8 AM - 6 PM wed 8 AM - 6 PM thu 8 AM - 6 PM fri 8 AM - 6 PM sat 9 AM - 6 PM sun 11 AM - 4 PM "
"https://www.searshometownstores.com/","https://www.searshometownstores.com/home/id/mountain home/3640","MTN HOME - AUTH HOMETOWN","1535 AMERICAN LEGION BLVD","MOUNTAIN HOME","ID","83647","US","0003640","(208) 587-9300","<MISSING>","43.133865","-115.67912","mon 9 AM - 6 PM tue 9 AM - 6 PM wed 9 AM - 6 PM thu 9 AM - 6 PM fri 9 AM - 6 PM sat 9 AM - 6 PM sun 11 AM - 4 PM "
"https://www.searshometownstores.com/","https://www.searshometownstores.com/home/or/north bend/3369","NORTH BEND -  AUTH HOMETOWN","1611 VIRGINIA AVE # 514","NORTH BEND","OR","97459","US","0003369","(541) 756-7323","<MISSING>","43.406818","-124.23315","mon 9 AM - 7 PM tue 9 AM - 7 PM wed 9 AM - 7 PM thu 9 AM - 7 PM fri 9 AM - 7 PM sat 9 AM - 6 PM sun 11 AM - 4 PM "
"https://www.searshometownstores.com/","https://www.searshometownstores.com/home/nm/carlsbad/3309","CARLSBAD - AUTH HOMETOWN","609 S CANYON SUITE A","CARLSBAD","NM","88220","US","0003309","(575) 885-3111","<MISSING>","32.440574","-104.25384","mon 10 AM - 7 PM tue 10 AM - 7 PM wed 10 AM - 7 PM thu 10 AM - 7 PM fri 10 AM - 7 PM sat 9 AM - 6 PM sun 11 AM - 4 PM "
